AGENCY,NAME,ADDRESS,CITY,STATE,ZIPCODE,PHONE,WEBSITE,YOUTH_FACILITIES,BEST_TIMES,ADVANCE_RESERVATION,THIRTY_FIVE,
Army Corps,Chena River Lakes,Montgomery Rd,Fort Wainwright,Alaska,99703,(907) 488-2748,http://www.poa.usace.army.mil/Locations/ChenaProject.aspx,Outdoor classroom,Summer, , ,
Army Corps,Degray Lake,729 Channel Rd,Arkadelphia,Arkansas,71923,(501) 324-5674,http://www.mvk.usace.army.mil/Missions/Recreation/DeGrayLake.aspx,Outdoor classroom,April, , ,
Army Corps,Lake Greeson,155 Dynamite Hill Rd,Murfreesboro,Arkansas,71958,(501) 324-5674,http://www.mvk.usace.army.mil/Missions/Recreation/LakeGreeson.aspx,Outdoor classroom,April, , ,
Army Corps,Lake Ouachita,1424 Blakely Dam Rd,Royal,Arkansas,71968,(501) 324-5674,http://www.mvk.usace.army.mil/Missions/Recreation/LakeOuachita.aspx,Outdoor classroom,April, , ,
Army Corps,Greers Ferry Lake, ,Heber Springs,Arkansas,72543,(501) 324-5674,http://www.swl.usace.army.mil/Missions/Recreation/Lakes/GreersFerryLake.aspx,Outdoor classroom,"Spring, Fall", , ,
Army Corps,Beaver Lake,2260 N 2nd St,Rogers,Arkansas,72756,(501) 324-5674,http://www.swl.usace.army.mil/Missions/Recreation/Lakes/BeaverLake.aspx,Outdoor classroom,Fall, , ,
Army Corps,Lake Sonoma,3333 Skaggs Springs Rd,Geyserville,California,95441,(707) 431-4533,http://www.spn.usace.army.mil/Missions/Recreation/LakeSonoma.aspx,"Visitor Center, smart board classroom with clickers, hatchery with ultra high definition theater (4k) and exhibits, interpretive trail",All Year, , ,
Army Corps,Hop Brook Lake,4 Straits Tpke,Middlebury,Connecticut,06762,(203) 729-8840,http://www.nae.usace.army.mil/Missions/Recreation/HopBrookLake.aspx,Outdoor classroom,All Year, , ,
Army Corps,Lake Okeechobee WW,2170 SW Canal St,Stuart,Florida,34997,(772) 219-4575,http://www.saj.usace.army.mil/Missions/CivilWorks/Recreation.aspx,Visitor Center/outdoors,All Year, , ,
Army Corps,Allatoona Lake,1138 GA 20-SPUR,Cartersville,Georgia,30121,(678) 721-6700,http://www.sam.usace.army.mil/Missions/CivilWorks/Recreation/AllatoonaLake.aspx,Visitor Center/outdoors,All Year, , ,
Army Corps,Pacific Regional Visitor Center - Barbers Point,2131 Kalia Rd,Honolulu,Hawaii,96830,(808) 438-2815,http://www.poh.usace.army.mil/Locations/PacificRegionalVisitorCenter.aspx,Visitor center,All Year, , ,
Army Corps,Albeni Falls Dam,2376 E Highway 2,Oldtown,Idaho,83822,(208) 437-7224,http://www.nws.usace.army.mil/Missions/CivilWorks/LocksandDams/AlbeniFallsDam/ProjectRecreation.aspx,"Visitor Center, Outdoor Assembly Areas, HMU's",All Year, , ,
Army Corps,"Mississippi River between MO River and Minneapolis, MVS Portion",301 Riverlands Way,West Alton,Missouri,63386,(636) 899-0050,http://www.mvs.usace.army.mil/Missions/Recreation/RiversProjectOffice.aspx,National Great Rivers Museum,All Year, , ,
Army Corps,Lake Shelbyville,IL 16,Shelbyville,Illinois,62565,(217) 774-3951,http://www.mvs.usace.army.mil/Missions/Recreation/LakeShelbyville.aspx,Visitor Center/Outdoor Classroom,April, , ,
Army Corps,Carlyle Lake,801 Lake Rd,Carlyle,Illinois,62231,(618) 594-2484,http://www.mvs.usace.army.mil/Missions/Recreation/CarlyleLake.aspx,Visitor Center/Outdoor Classroom,April, , ,
Army Corps,Rend Lake,11981 Rend City Rd,Benton,Illinois,62812,(618) 724-2493,http://www.mvs.usace.army.mil/Missions/Recreation/RendLake.aspx,Visitor Center/Outdoor Classroom,April, , ,
Army Corps,Cagles Mill Lake, ,Poland,Indiana,47868,(765) 795-4439,http://www.lrl.usace.army.mil/Missions/CivilWorks/Recreation/Lakes/CaglesMillLake.aspx,Outdoor classroom,Summer, , ,
Army Corps,Saylorville Lake,5600 NW 78th Ave,Johnston,Iowa,50131,(515) 276-4656,http://www.mvr.usace.army.mil/Missions/Recreation/SaylorvilleLake.aspx,Visitor Center,April, , ,
Army Corps,Lake Red Rock,1105 Highway T15,Knoxville,Iowa,50138,(641) 828-7522,http://www.mvr.usace.army.mil/Missions/Recreation/LakeRedRock.aspx,Outdoor classroom,May, , ,
Army Corps,Coraville Lake,2850 Prairie du Chien Rd NE,Iowa City,Iowa,52240,(319) 338-3543,http://www.mvr.usace.army.mil/Missions/Recreation/CoralvilleLake.aspx,Outdoor classroom,Summer, , ,
Army Corps,Clinton Lake,872 N 1402 Rd,Lawrence,Kansas,66049,(816) 389-2416,http://www.nwk.usace.army.mil/Locations/DistrictLakes/ClintonLake.aspx,Outdoor classroom,"Spring, Summer", , ,
Army Corps,El Dorado Lake,945 Lake Rd,Council Grove,Kansas,66861,(918) 669-4903,http://www.swt.usace.army.mil/Locations/TulsaDistrictLakes/Kansas/ElDoradoLake.aspx,Outdoor classroom,Summer, , ,
Army Corps,Green River Lake,544 Lake Rd,Campbellsville,Kentucky,42718,(270) 465-4463,http://www.lrl.usace.army.mil/Missions/CivilWorks/Recreation/Lakes/GreenRiverLake.aspx,"Outdoor classroom, Visitor Center",Summer, , ,
Army Corps,J Bennett Johnston Waterway,700 Clyde Fant Pky,Shreveport,Louisiana,71101,(318) 422-3351,http://www.mvk.usace.army.mil/Missions/Recreation/JBennettJohnstonVisitorCenter.aspx,"Outdoor Education, Visitor Center",September, , ,
Army Corps,Bonnet Carre Spillway,River Rd,Norco,Louisiana,70079,(504) 491-8368,http://www.mvn.usace.army.mil/Missions/Recreation/BonnetCarreSpillway.aspx,Outdoor Education Center,April, , ,
Army Corps,Atchafalaya Basin Floodway System - Sherburne Refuge Headquarters,112 Speck Ln,Port Barre,Louisiana,70577,(337) 351-9020,http://www.mvn.usace.army.mil/Missions/Recreation/AtchafalayaBasin.aspx,Outdoor Education Center,May, , ,
Army Corps,Cape Cod Canal,Ed Moffitt Dr,Sandwich,Massachusetts,02563,(508) 833-9678,http://www.nae.usace.army.mil/Missions/Recreation/CapeCodCanal.aspx,"Outdoor classroom, visitor center",All Year, , ,
Army Corps,"Lac Qui Parle Lakes, Minnesota River",9055 1st St W,Watson,Minnesota,56295,(320) 269-6303,http://www.mvp.usace.army.mil/Missions/Recreation/LacquiParle.aspx,Lake,Summer, , ,
Army Corps,Sardis Lake,MS 315,Sardis,Mississippi,38666,(662) 563-4571,http://www.mvk.usace.army.mil/Missions/Recreation/SardisLake.aspx,Outdoor Classroom,All Year, , ,
Army Corps,Enid Lake, ,Enid,Mississippi,38927,(662) 712-1163,http://www.mvk.usace.army.mil/Missions/Recreation/EnidLake.aspx,Outdoor Classroom,All Year, , ,
Army Corps,Grenada Lake,Scenic Loop 333,Grenada,Mississippi,38901,(662) 227-0237,http://www.mvk.usace.army.mil/Missions/Recreation/GrenadaLake.aspx,Outdoor Classroom,All Year, , ,
Army Corps,Arkabutla Lake,3905 Arkabutla Dam Rd,Coldwater,Mississippi,38618,(662) 301-4571,http://www.mvk.usace.army.mil/Missions/Recreation/ArkabutlaLake.aspx,Outdoor Classroom,All Year, , ,
Army Corps,Wappapello Lake,10992 Highway T,Wappapello,Missouri,63966,(573) 222-8562,http://www.mvs.usace.army.mil/Missions/Recreation/WappapelloLake.aspx,Fishing pier and pond,Summer, , ,
Army Corps,Clarence Cannon Dam and Mark Twain Lake,20642 Highway J,Monroe City,Missouri,63456,(573) 735-4097,http://www.mvs.usace.army.mil/Missions/Recreation/MarkTwainLake.aspx,"Visitor Center, Outdoor Classroom, Trail",Winter, , ,
Army Corps,H.S. Truman,15968 Truman Rd,Warsaw,Missouri,65355,(816) 389-3810,http://www.nwk.usace.army.mil/Locations/DistrictLakes/HarrySTrumanLake.aspx,"Visitor Center., Outdoor Classroom","Spring, Summer", , ,
Army Corps,Table Rock Lake,4600 MO 165,Branson,Missouri,65616,(501) 340-1950,http://www.swl.usace.army.mil/Missions/Recreation/Lakes/TableRockLake.aspx,Visitor Center and Outdoor Classroom,All Year, , ,
Army Corps,Libby Dam,17877 MT 37,Libby,Montana,59923,(406) 293-7751,http://www.nws.usace.army.mil/Missions/CivilWorks/LocksandDams/LibbyDam.aspx,"Visitor Center., Outdoor Classroom",Summer, , ,
Army Corps,Conchas, ,Conchas,New Mexico,88416,(575) 868-2221,http://www.spa.usace.army.mil/Missions/CivilWorks/Recreation/ConchasLake.aspx,Outdoor Classroom,Summer, , ,
Army Corps,Mt. Morris Dam,6103 Visitor Center Rd,"Mt Morris, Town of",New York,14510,(585) 658-4790,http://www.lrb.usace.army.mil/Missions/Recreation/MountMorrisDam.aspx,"Outdoor classroom, Visitor Center",Summer, , ,
Army Corps,W. Kerr Scott Lake,499 Reservoir Rd,Wilkesboro,North Carolina,28697,(336) 921-3390,http://www.saw.usace.army.mil/Locations/DistrictLakesandDams/WKerrScott.aspx,"Visitor Center, Environmental Education Center,  Outdoor Classroom, Trails,  Native Tree Trail",All Year, , ,
Army Corps,B. Everett Jordan Dam and Lake,2080 Jordan Dam Rd,Moncure,North Carolina,27559,(919) 846-9332,http://www.saw.usace.army.mil/Locations/DistrictLakesandDams/BEverettJordan.aspx,"Visitor Center, Outdoor Classroom, Trails, Native Wildflowers, Herpetology Pond",All Year, , ,
Army Corps,Falls Lake,11405 Falls of Neuse Rd,Wake Forest,North Carolina,27614,(919) 846-9332,http://www.saw.usace.army.mil/Locations/DistrictLakesandDams/FallsLake.aspx,"Visitor Center, Outdoor Classroom, Trails, Native Wildflowers, Small Herpetology Pond",All Year, , ,
Army Corps,Cape Fear Locks & Dams,645 Lock Rd,Elizabethtown,North Carolina,28337,(910) 655-2605,http://www.saw.usace.army.mil/Locations/DistrictLakesandDams/CapeFearLocksandDams.aspx,"Small Visitor Area, Outdoor Classroom, Trail, Rain Garden",All Year, , ,
Army Corps,Lake Ashtabula and Baldhill Dam,2630 114th Ave SE,Valley City,North Dakota,58072,(701) 845-2970,http://www.mvp.usace.army.mil/Missions/Recreation/LakeAshtabulaBaldhillDam.aspx,Outdoor classroom,Spring, , ,
Army Corps,Garrison Dam & Lake Sakakawea,"201 1st ST, PO Box 527",Riverdale,North Dakota,58565,(701) 654-7411,http://www.nwo.usace.army.mil/Missions/DamandLakeProjects/MissouriRiverDams/Garrison.aspx,Outdoor classroom,Summer, , ,
Army Corps,Caesars Creek Lake,4020 Clarksville Rd,Waynesville,Ohio,45068,(513) 897-1050,http://www.lrl.usace.army.mil/Missions/CivilWorks/Recreation/Lakes/CaesarCreekLake.aspx,"Outdoor classroom, Visitor Center",Summer, , ,
Army Corps,Eufaula Lake, ,Stigler,Oklahoma,74462,(918) 669-4903,http://www.swt.usace.army.mil/Locations/TulsaDistrictLakes/Oklahoma/EufaulaLake.aspx,Outdoor Classroom,Summer, , ,
Army Corps,Texoma Lake,351 Corps Rd,Denison,Texas,75020,(918) 669-4903,http://www.swt.usace.army.mil/Locations/TulsaDistrictLakes/Oklahoma/LakeTexoma.aspx,Outdoor Classroom,All Year, , ,
Army Corps,Bonneville Lock and Dam,WA 14,North Bonneville,Washington,98639,(541) 374-8820,http://www.nwp.usace.army.mil/Locations/ColumbiaRiver/Bonneville.aspx,"Visitor Center, Outdoor Classroom",All Year, , ,
Army Corps,Shenango Lake,2442 Kelly Rd,Hermitage,Pennsylvania,16148,(724) 962-7746,http://www.lrp.usace.army.mil/Missions/Recreation/Lakes/ShenangoRiverLake.aspx,"Visitor Center, Outdoor Classroom",Summer, , ,
Army Corps,Raystown Lake,6145 Seven Points Rd,Hesston,Pennsylvania,16647,(814) 658-3405,http://www.nab.usace.army.mil/Missions/DamsRecreation/Raystown.aspx,"Outdoor classroom, Visitor Center",All Year, , ,
Army Corps,Richard B. Russell Lake,4144 Russell Dam Dr,Elberton,Georgia,30635,(706) 213-3400,http://www.sas.usace.army.mil/About/DivisionsandOffices/OperationsDivision/RichardBRussellDamandLake.aspx,"Outdoor classroom, Visitor Center",All Year, , ,
Army Corps,Oahe Dam,28563 Powerhouse Rd,Pierre,South Dakota,57501,(605) 224-5862,http://www.nwo.usace.army.mil/Missions/DamandLakeProjects/MissouriRiverDams/Oahe.aspx,Outdoor classroom,Summer, , ,
Army Corps,Center Hill Lake,Lancaster Rd,Lancaster,Tennessee,38569,(931) 858-3125,http://www.lrn.usace.army.mil/Locations/Lakes/CenterHillLake.aspx,"Visitor Center, Outdoor Classroom",Summer, , ,
Army Corps,Canyon Lake, , ,Texas,78133,(817) 886-1577,http://www.swf-wc.usace.army.mil/canyon/,Outdoor Classroom,All Year, , ,
Army Corps,Lewisville Lake,1801 N Mill St,Lewisville,Texas,75057,(817) 886-1577,http://www.swf-wc.usace.army.mil/lewisville/,Outdoor Classroom,All Year, , ,
Army Corps,Waco Lake,3801 Zoo Park Dr,Waco,Texas,76708,(817) 886-1577,http://www.swf-wc.usace.army.mil/waco/,Outdoor Classroom,All Year, , ,
Army Corps,Ball Mountan Dam,88 Ball Mountain Ln,Jamaica,Vermont,05343,(802) 874-4881,http://www.nae.usace.army.mil/Missions/Recreation/BallMountainLake.aspx,"Outdoor classroom, Visitor Center",All Year, , ,
Army Corps,John H. Kerr Dam & Reservoir,1930 Mays Chapel Rd,Boydton,Virginia,23917,(434) 738-6143,http://www.saw.usace.army.mil/Locations/DistrictLakesandDams/JohnHKerr.aspx,"Visitor Center, Environmental Education Center,  Outdoor classroom, Trails, Butterfly Garden",All Year, , ,
Army Corps,Philpott Lake,1058 Philpott Dam Rd,Bassett,Virginia,24055,(276) 629-2703,http://www.saw.usace.army.mil/Locations/DistrictLakesandDams/Philpott.aspx,"Visitor Center, Outdoor Classroom, Trails",All Year, , ,
Army Corps,Lake Washington Ship Canal,3015 NW 54th St,Seattle,Washington,98107,(206) 783-7059,http://www.nws.usace.army.mil/Missions/CivilWorks/LocksandDams/ChittendenLocks.aspx,"Visitor Center, Outdoor Classroom",All Year, , ,
Army Corps,Summersville Lake, ,Summersville,West Virginia,26651,(304) 872-3412,http://www.lrh.usace.army.mil/Missions/CivilWorks/Recreation/WestVirginia/SummersvilleLake.aspx,Outdoor classroom and Visitor Center,Summer, , ,
Army Corps,Eau Galle River Lake,W501 Eau Galle Dam Rd,Spring Valley,Wisconsin,54767,(651) 290-5716,http://www.mvp.usace.army.mil/Missions/Recreation/EauGalleRecreationArea.aspx,Outdoor classroom,April, , ,
Army Corps,Abiquiu Lake,4731 State Hwy 96,Abiquiu,New Mexico,87510,(505) 685-4371,http://www.spa.usace.army.mil/Missions/Civil-Works/Recreation/Abiquiu-Lake/,"Information Center, Camping, Day Use, Picnic Shelters, Amphitheatre, Restrooms",None,Y,Y,
Army Corps,Alabama River Lakes,8493 US Highway 80 West,Hayneville,Alabama,36040,(334) 872-9554,http://www.sam.usace.army.mil/Missions/Civil-Works/Recreation/Alabama-River-Lakes/,"Restrooms, Visitor Center, Group shelters, Day use areas",All Year - By Request,Y,Y,
Army Corps,Alabama River Lakes - Millers Ferry Site Office/Millers Ferry Lock and Dam,1226 Powerhouse Road,Camden,Alabama,36726,(334) 682-4244,http://www.sam.usace.army.mil/Missions/Civil-Works/Recreation/Alabama-River-Lakes/,"Restrooms, Visitor Center, Group shelters, Day use areas",All Year - By Request,Y,Y,
Army Corps,Allatoona Lake,1138 GA Highway 20 Spur,Cartersville,Georgia,30121,(678) 721-6700,http://www.sam.usace.army.mil/Missions/Civil-Works/Recreation/Allatoona-Lake/,"Restrooms, Visitor Center, Group shelters, Day use areas",All Year - By Request,Y,Y,
Army Corps,Aquilla Lake,285 CR 3602,Clifton,Texas,76634,(254) 622-3332,http://www.swf-wc.usace.army.mil/aquilla/,,,N,N,
Army Corps,B. Everett Jordan Dam and Lake,2080 Jordan Dam Road,Moncure,North Carolina,27559,(919) 542-4501,http://www.saw.usace.army.mil/Locations/DistrictLakesandDams/BEverettJordan.aspx,"Restrooms, Visitor Center, Amphitheater, Day Use Areas, Other: Trails",All Year,Y,Y,
Army Corps,Ball Mountain Lake,88 Ball Mountain Lane,Jamaica,Vermont,05343,(802) 874-4881,http://www.nae.usace.army.mil/Missions/Recreation/Ball-Mountain-Lake/,"restrooms, camping, playgrounds, day use areas",All Year - By Request,Y,Y,
Army Corps,Bardwell,4000 Observation Drive,Ennis,Texas,75119,(972) 875-5711,http://www.swf-wc.usace.army.mil/bardwell/,Day Use Areas,"Fall, Winter",Y,Y,
Army Corps,Barre Falls Dam,200 Coldbrook Road,Barre,Massachusetts,01005,(978) 928-4712,http://www.nae.usace.army.mil/Missions/Recreation/Barre-Falls-Dam/,"restrooms, day use areas, disc golf course, group shelters",All Year - By Request,Y,Y,
Army Corps,Barren River Lake (USACE),11088 Finney Rd,Glasgow ,Kentucky,42122,(270) 646-2055,http://www.lrl.usace.army.mil/Missions/Civil-Works/Recreation/Lakes/Barren-River-Lake/,restrooms,All Year,N,Y,
Army Corps,Bay Model Vistors Center,2100 Bridgeway Blvd,Sausalito,California,94965,(415) 332-3871,http://www.spn.usace.army.mil/Missions/Recreation/Lake/,"Restrooms, Visitor Center",All Year ,Y,Y,
Army Corps,Beaver Lake,2260 N 2nd Street,Rogers,Arkansas,72756,(479) 636-1210,http://www.swl.usace.army.mil/Missions/Recreation/Lakes/Beaver-Lake/,"Campgrounds, restrooms/shower houses, group shelters, day use areas, swimming areas, boat ramps, hiking trails.",Year-around,Y,Y,
Army Corps,Belton,3740 FM 1670,Belton,Texas,76513,(254) 939-2461,http://www.swf-wc.usace.army.mil/Belton/,"Environmental Education, Restrooms, Group Shelter, Day Use Areas, Camping Facilities, Boat Ramps","Spring, Fall, Winter",Y,Y,
Army Corps,Benbrook,P.O. Box 26619,Fort Worth,Texas,76126,(817) 292-2400,http://www.swf-wc.usace.army.mil/benbrook/,"Restrooms, Day Use Areas","Fall, Winter",Y,Y,
Army Corps,Birch Hill Dam,68 Birch Hill Dam Road,Royalston,Massachusetts,01368,(978) 249-4467,http://www.nae.usace.army.mil/Missions/Recreation/Birch-Hill-Dam/,"restrooms, picnicing area, interpretive trail, day use areas",All Year - By Request,Y,Y,
Army Corps,Black Butte Lake,19225 Newville Road,Orland,California,95963,(530) 865-4781,http://www.spk.usace.army.mil/Locations/Sacramento-District-Parks/Black-Butte-Lake/,"Information Center, Camping, Day Use, Picnic Shelters, Amphitheatre, Restrooms",All Year,Y,Y,
Army Corps,Black Warrior and Tombigbee Lakes,101 21st Avenue,Tuscaloosa,Alabama,35401,(205) 752-3571,http://www.sam.usace.army.mil/Missions/Civil-Works/Recreation/Black-Warrior-Tombigbee-BWT-Lakes/,"Restrooms, Visitor Center, Group shelters, Day use areas",All Year - By Request,Y,Y,
Army Corps,Black Warrior and Tombigbee Lakes - Demopolis Site Office,384 Resource Management Drive,Demopolis,Alabama,36732,(334) 289-3540,http://www.sam.usace.army.mil/Missions/Civil-Works/Recreation/Black-Warrior-Tombigbee-BWT-Lakes/,"Restrooms, Visitor Center, Group shelters, Day use areas",All Year - By Request,Y,Y,
Army Corps,Black Warrior and Tombigbee Lakes - Holt Resource Office,11911 Holt Lock and Dam Road,Peterson,Alabama,35478,(205) 553-9373,http://www.sam.usace.army.mil/Missions/Civil-Works/Recreation/Black-Warrior-Tombigbee-BWT-Lakes/,"Restrooms, Visitor Center, Group shelters, Day use areas",All Year - By Request,Y,Y,
Army Corps,Blue Mountain Lake Office,10152 Outlet Park Road,Havana,Arkansas,72842,(479) 947-2372,http://www.swl.usace.army.mil/Missions/Recreation/Lakes/Blue-Mountain-Lake/,"Restrooms, Amphitheater, Group Shelter, Swim Beach, Playground, Picnic Sites, Boat Ramps",Year-around,Y,Y,
Army Corps,Bonneville Lock and Dam,"I-84, Exit 40",Cascade Locks,Oregon,97014,(541) 374-8820,http://www.nwp.usace.army.mil/Locations/Columbia-River/Bonneville/,"Restrooms, Visitor Center, Group shelters, Day use areas",All Year,Y,Y,
Army Corps,Brookville Lake,10064 Overlook Road,Brookville,Indiana,47012,(765) 647-6701,http://www.lrl.usace.army.mil/Missions/Civil-Works/Recreation/Lakes/Brookville-Lake/,"Restrooms, Visitor Center, Environmental education facility, Group shelters, Day use areas",All Year,Y,Y,
Army Corps,Buckhorn Lake ,804 Buckhorn Dam Road ,Buckhorn,Kentucky,41721,(606) 398-7251,http://www.lrl.usace.army.mil/Missions/Civil-Works/,"Restrooms, Group shelters, Day use areas",Call For Avaliablity ,Y,Y,
Army Corps,Buffumville Lake,48 Old Oxford Road,Charlton,Massachusetts,01507,(508) 248-5697,http://www.nae.usace.army.mil/Missions/Recreation/Buffumville-Lake/,"restrooms, disc golf course, interpretive trail, beach, boat launch, group shelters, group camping, day use areas",All Year - By Request,Y,Y,
Army Corps,C J Brown Dam and Reservior,2630 Croft Rd,Springfield,Ohio,45503,(937) 325-2411,http://www.lrl.usace.army.mil/Missions/Civil-Works/Recreation/Lakes/CJ-Brown-Dam-Reservoir/,"Restrooms, Visitor Center, Environmental education facility, Group shelters, Day use areas",All Year,Y,Y,
Army Corps,Caesar Creek Lake,4020 N. Clarksville Rd,Waynesville,Ohio,45068,(513) 897-1050,http://www.lrl.usace.army.mil/Missions/Civil-Works/Recreation/Lakes/Caesar-Creek-Lake/,"Restrooms, Visitor Center, Environmental education facility, Theatre, Group shelters, Day use areas",All Year,Y,Y,
Army Corps,Cagles Mill Lake,11979 S. County Rd 375 W,Poland,Indiana,47868,(765) 795-4439,http://www.lrl.usace.army.mil/Missions/Civil-Works/Recreation/Lakes/Cagles-Mill-Lake/,"Restrooms,  group shelters, day use areas, playgrounds, fishing areas","Spring, Summer, Fall",Y,N,
Army Corps,Canyon,601 Coe Road,Canyon Lake,Texas,78133,(830) 964-3341,http://www.swf-wc.usace.army.mil/canyon/,"Restrooms, Visitor Center, Group Shelters, Day Use Areas, Camping Facilities, Boat Ramps","Spring, Fall, Winter",Y,Y,
Army Corps,Cape Cod Canal,40 Academy Dr,Buzzards Bay,Massachusetts,02532,(508) 759-4431,http://www.nae.usace.army.mil/Missions/Recreation/Cape-Cod-Canal/,"restrooms, visitor center, day use areas, volleyball court, group shelter",All Year - By Request,Y,Y,
Army Corps,Carr Creek Lake,843 Sassafras Creek Road,Sassafras,Kentucky,41759,(606) 642-3308,http://www.lrl.usace.army.mil/Missions/Civil-Works/,"Restrooms, Visitor Center, Group shelters","Spring, Summer, Fall",Y,Y,
Army Corps,Carters Lake,1850 Carters Dam Road,Chatsworth,Georgia,30705,(706) 334-2248,http://www.sam.usace.army.mil/Missions/Civil-Works/Recreation/Carters-Lake/,"restrooms,visitor center, day use, group shelters",All Year - By Request,Y,Y,
Army Corps,Cave Run Lake,150 KY Hyw 826,Morehead,Kentucky,40351,(606) 784-9709,http://www.lrl.usace.army.mil/Missions/Civil-Works/,"Restrooms, Group shelters, Day use areas",Fall,Y,N,
Army Corps,Cecil M. Harden Lake,3391 S. Dam Road,ROCKVILLE  ,Indiana,47872,(765) 344-1570,http://www.lrl.usace.army.mil/Missions/Civil-Works/Recreation/Lakes/Cecil-M-Harden-Lake/,"Restrooms,  group shelters, day use areas, playgrounds, fishing areas","Spring, Summer, Fall",Y,N,
Army Corps,Center Hill Lake Resource Manager's Office (Center Hill Lake),158 Resource Lane,Lancaster,Tennessee,38569,(931) 858-3126,http://www.lrn.usace.army.mil/Locations/Lakes/Center-Hill-Lake/,"Restrooms, Visitor Center, Day Use Area, Interpretive Trail, Lake/River Access",All,Y,Y,
Army Corps,Cheatham Lake,1798 Cheatham Dam Rd,Ashland City ,Tennessee,37015,(615) 792-5697,http://www.lrn.usace.army.mil/Locations/Lakes/Cheatham-Lake/,"Boat Ramp, Group Shelters, Beach Area, Campground, Day Use Area, Amphitheater",,N,Y,
Army Corps,Clearwater Lake Project Office,"RR 3, Box 3559-D",Piedmont,Missouri,63957,(573) 223-7777,http://www.swl.usace.army.mil/Missions/Recreation/Lakes/Clearwater-Lake/,"Restrooms, Group Shelters, Day use areas",All Year,Y,Y,
Army Corps,Clinton Lake Project Office,872 N. 1402 Rd,Lawrence,Kansas,66049,(785) 843-7665,http://www.nwk.usace.army.mil/Locations/,"Restroom, Group Shelters, Day use areas",All Year,Y,N,
Army Corps,Cochiti Lake,82 Dam Crest Road ,Pena Blanca,New Mexico,87041,(505) 465-0307,http://www.spa.usace.army.mil/Missions/Civil-Works/Recreation/Cochiti-Lake/,"Information Center, Camping, Day Use, Picnic Shelters, Amphitheatre, Restrooms",,Y,Y,
Army Corps,Conchas Lake,287 Bell Ranch Road,Conchas Dam,New Mexico,88416,(575) 868-2221,http://www.spa.usace.army.mil/Missions/Civil-Works/Recreation/Conchas-Lake/,"Day Use, Picnic Shelters, Restrooms, Information Center, Camping",,N,Y,
Army Corps,Cordell Hull Lake,71 Corps Lane ,Carthage,Tennessee,38553,(615) 735-1034,http://www.lrn.usace.army.mil/Locations/Lakes/Cordell-Hull-Lake/,"Restrooms, Visitor Center, Campgrounds, Amphitheater, Boat Launching, Day use areas, Swimming beaches",All Year,Y,Y,
Army Corps,Cottage Grove Lake,75819 Shortridge Hill Road,Cottage Grove,Oregon,97424,(541) 942-5631,http://www.nwp.usace.army.mil/Locations/Willamette-Valley/Cottage-Grove/,"Restrooms, Day use areas","Winter, Spring, Fall",Y,Y,
Army Corps,Dale Hollow Lake ,540 Dale Hollow Dam Road ,Celina ,Tennessee,38551,(931) 243-3136,http://www.lrn.usace.army.mil/Locations/Lakes/Dale-Hollow-Lake/,"Visitor Center, Restrooms, Amphitheater, Group Shelters, Day use area, Fish Cleaning Station",,Y,Y,
Army Corps,DeQueen Lake ,706 De Queen Lake Road,DeQueen,Arkansas,71832,(870) 584-4161,http://www.swl.usace.army.mil/Missions/Recreation/Lakes/DeQueen-Lake/,"Restrooms, Group Shelters, Day Use Areas","Spring, Summer",Y,Y,
Army Corps,Dorena Lake,34909 Shoreview Drive,Cottage Grove,Oregon,97424,(541) 942-5631,http://www.nwp.usace.army.mil/Locations/Willamette-Valley/Dorena/,"Restrooms, Day use areas","Winter, Spring, Fall",Y,Y,
Army Corps,East Brimfield Lake ,24 Riverview Ave,Fiskdale (Sturbridge),Massachusetts,01518,(508) 347-3705,http://www.nae.usace.army.mil/Missions/Recreation/East-Brimfield-Lake/,"restrooms, boat launch, canoe trail, interpretive trail, day use areas, beach",All Year,Y,Y,
Army Corps,Eastman Lake,32175 Road 29,Raymond,California,93653,(559) 689-3255,http://www.spk.usace.army.mil/Locations/Sacramento-District-Parks/Eastman-Lake/,"Information Center, Camping, Day Use, Picnic Shelters, Amphitheatre, Restrooms",All Year,Y,Y,
Army Corps,Eastman Lake,32175 Road 29,Raymond,California,93653,(559) 689-3255,http://www.spk.usace.army.mil/Locations/Sacramento-District-Parks/Eastman-Lake/,"Information Center, Camping, Day Use, Picnic Shelters, Amphitheatre, Restrooms",All Year,Y,Y,
Army Corps,Edward MacDowell Lake,75 Wilder Street,Peterborough,New Hampshire,03458,(603) 924-3431,http://www.nae.usace.army.mil/Missions/Recreation/Edward-MacDowell-Lake/,"boat ramp, swim beach, group shelters, restrooms, day use areas",All Year - By Request,Y,Y,
Army Corps,Englebright Lake,12896 Englebright Dam Road,Smartsville,California,95977,(530) 432-6427,http://www.spk.usace.army.mil/Locations/Sacramento-District-Parks/Englebright-Lake/,"Information Center, Camping, Day Use, Picnic Shelters, Restrooms",All Year,N,Y,
Army Corps,Falls Lake,11405 Falls of the Neuse Road,Wake Forest ,North Carolina,27587,(919) 846-9332,http://www.saw.usace.army.mil/Locations/DistrictLakesandDams/FallsLake.aspx,"Restrooms, Visitor Center, Amphitheater, Day Use Areas, Other: Fishing Pier, Trails",All Year,Y,Y,
Army Corps,Fern Ridge Lake,26275 Clear Lake Road,Junction City,Oregon,97448,(541) 942-5631,http://www.nwp.usace.army.mil/Locations/Willamette-Valley/Fern-Ridge/,"Restrooms, Day use areas","Winter, Spring, Fall",Y,Y,
Army Corps,Foster Lake,2000 53rd Avenue,Foster,Oregon,97345,(541) 942-5631,http://www.nwp.usace.army.mil/Locations/Willamette-Valley/Foster/,"Restrooms, Day use areas","Winter, Spring, Fall",Y,Y,
Army Corps,Franklin Falls Dam,46 Granite Drive,Franklin ,New Hampshire,03235,(603) 934-2116,http://www.nae.usace.army.mil/Missions/Recreation/Franklin-Falls-Dam/,"restrooms, playground, day use areas, disc golf course",All Year - By Request,Y,Y,
Army Corps,Georgetown,500 Lake Overlook Drive,Georgetown,Texas,78633,(512) 819-9046,http://www.swf-wc.usace.army.mil/Georgetown/,"Restrooms, Group Shelters, Day Use Areas, Camping Facilities, Boat Ramps","Spring, Fall, Winter",Y,Y,
Army Corps,Granger,3100 Granger Dam Road,Granger,Texas,76350,(512) 859-2668,http://www.swf-wc.usace.army.mil/Granger/,"Restrooms, Group Shelters, Day Use Areas, Camping Facilities, Boat Ramps","Spring, Fall, Winter",Y,Y,
Army Corps,Grapevine,110 Fairway Drive,Grapevine,Texas,76051,(817) 865-2600,http://www.swf-wc.usace.army.mil/grapevine/,"Restrooms, Day use areas","Fall, Winter",Y,Y,
Army Corps,Green River Lake,544 Lake Road,Campbellsville,Kentucky,42718,(270) 465-4463,http://www.lrl.usace.army.mil/Missions/Civil-Works/Recreation/Lakes/Green-River-Lake/,"Restrooms, Visitor Center, Shelters, Picnic sites, Trails, Fishing sites, Playgrounds, Day use areas, Boat Ramps, Swimming Areas, Camping",All Year,Y,Y,
Army Corps,Greers Ferry Project Office,700 Heber Springs Road North,Heber Springs,Arkansas,72543,(501) 362-2416,http://swl.usace.army.mil/missions/recreation/lakes/Greers-Ferry-Lake,"Restrooms, Disc Golf",,N,N,
Army Corps,Greers Ferry-William Carl Garner Visitor Center ,700 Heber Springs Road North,Heber Springs,Arkansas,72543,(501) 362-9067,http://swl.usace.army.mil/missions/recreation/lakes/Greers-Ferry-Lake/Wm-Carl-Garner-Visitor-Center,"Visitor Center, Restrooms, Disc Golf",Spring,Y,Y,
Army Corps,Harry S. Truman Project Office,15968 Truman Road,Warsaw,Missouri,65355,(660) 438-7317,http://www.nwk.usace.army.mil/Locations/,"Restroom, Visitor Center, Amphithearter, Group Shelters, Day use areas",All Year,Y,Y,
Army Corps,Hartwell Dam and Lake,5625 Anderson Hwy,Hartwell,Georgia,30643,(706) 856-0300,http://www.sas.usace.army.mil/About/Divisions-and-Offices/Operations-Division/Hartwell-Dam-and-Lake/,"Visitor Center, Group Shelters, Day Use Areas, Swim Beaches, Restrooms, Playgrounds",All Year,Y,Y,
Army Corps,Hensley Lake,25207 Road 407,Raymond,California,93653,(559) 673-5151,http://www.spk.usace.army.mil/Locations/Sacramento-District-Parks/Hensley-Lake/,"Information Center, Camping, Day Use, Picnic Shelters, Amphitheatre, Restrooms",All Year,Y,Y,
Army Corps,Hensley Lake,25207 Road 407,Raymond,California,93653,(559) 673-5151,http://www.spk.usace.army.mil/Locations/Sacramento-District-Parks/Hensley-Lake/,"Information Center, Camping, Day Use, Picnic Shelters, Amphitheatre, Restrooms",All Year,Y,Y,
Army Corps,Hillsdale,26000 W. 255th St,Paola ,Kansas,66071,(913) 783-4366,http://www.nwk.usace.army.mil/Locations/,"Restroom, Visitor Center, other","Spring, Summer",Y,N,
Army Corps,Hop Brook Lake,4 Straits Turnpike,Middlebury,Connecticut,06762,(203) 729-8840,http://www.nae.usace.army.mil/Missions/Recreation/Hop-Brook-Lake/,"restrooms, group shelters, beach, day use areas, sports fields",All Year - By Request,Y,Y,
Army Corps,Hords Creek,23 Friendship Park Road,Coleman,Texas,76834,(325) 625-2322,http://www.swf-wc.usace.army.mil/hords creek/,"Group Shelters, Restrooms, Day Use Area","Spring, Fall, Winter",Y,Y,
Army Corps,Ice Harbor Lock and Dam - Lake Sacajawea - Visitor Center,2763 Monument Drive,Burbank,Washington,99323,(509) 547-2048,http://www.nww.usace.army.mil/Missions/Recreation/Ice-Harbor-Dam-Lake-Sacajawea/,"Visitor Center, restrooms, picnic area","Spring, Fall preferred, including off-site programs; Summer possible",Y,Y,
Army Corps,J. Percy Priest Lake,3737 Bell Road,Nashville,Tennessee,37214,(615) 889-1975,http://www.lrn.usace.army.mil/Locations/Lakes/J-Percy-Priest-Lake/,"Restrooms, Group shelters, Day use areas",Summer,Y,Y,
Army Corps,J. Strom Thurmond Dam and Lake,510 Clarks Hill Highway,Clarks Hill,South Carolina,29821,(800) 533-3478,http://corpslakes.usace.army.mil/visitors/projects.cfm?ID=K603350,"Restrooms, visitor center, group shelters, day use areas, campgrounds, hiking, trails, biking trails, equestrian trail, boat ramp","Spring, Summer (By Request), Fall, Winter",Y,Y,
Army Corps,John Day Lock and Dam- LePage Park ,"I-84, Exit 114",Rufus ,Oregon,97050,(541) 506-7819,http://www.nwp.usace.army.mil/Locations/Columbia-River/John-Day/,"Restrooms, Group shelters, Day use areas",All Year,Y,Y,
Army Corps,John Day Lock and Dam- Plymouth Park ,Christy Road,Plymouth ,Washington,99346,(541) 506-7819,http://www.nwp.usace.army.mil/Locations/Columbia-River/John-Day/,"Restrooms, Group shelters, Day use areas",All Year,Y,Y,
Army Corps,John H. Kerr Dam and Reservoir,1930 Mays Chapel Road,Boydton,Virginia,23917,(434) 738-6143,http://www.saw.usace.army.mil/Locations/DistrictLakesandDams/JohnHKerr.aspx,"Restrooms, Visitor Center, Environmental Education Facility, Amphitheater, Group Shelter, Day Use Areas, Other: Trails",All Year,Y,Y,
Army Corps,John Martin Reservoir,29955 County Road 25.75,Hasty ,Colorado,81044,(719) 336-3476,http://www.spa.usace.army.mil/Missions/Civil-Works/Recreation/John-Martin-Reservoir/,"Information Center, Day Use, Restrooms",None,N,Y,
Army Corps,Knightville Dam,49 Knightville Dam Road,Huntington,Massachusetts,01050,(413) 667-3430,http://www.nae.usace.army.mil/Missions/Recreation/Knightville-Dam/,"group camping area, restrooms, group shelter, day use areas",All Year - By Request,Y,Y,
Army Corps,Lake Barkley ,200 Barkley Dam Overlook,Grand Rivers,Kentucky,45045,(270) 362-4236,http://www.lrn.usace.army.mil/Locations/Lakes/Lake-Barkley/,"Restrooms, Visitor Center",Summer,Y,N,
Army Corps,Lake Cumberland WOL/R,855 Boat Dock Rd,Somerset,Kentucky,42501,(606) 679-6337,http://www.lrn.usace.army.mil/Locations/Lakes/Lake-Cumberland/,"restrooms,visitor center, day use, shelters",All Year,Y,Y,
Army Corps,Lake Kaweah,34443 Sierra Drive,Lemon Cove,California,93244,(559) 597-2301,http://www.spk.usace.army.mil/Locations/Sacramento-District-Parks/Lake-Kaweah/,"Visitors Center, Camping, Day Use, Picnic Shelters, Amphitheatre, Restrooms",All Year,Y,Y,
Army Corps,Lake Mendocino,1160 Lake Mendocino Dr,Ukiah,California,95482,(707) 467-4200,http://www.spn.usace.army.mil/Missions/Recreation/Lake/,"Restrooms, Camping, Group Shelters, Day Use Areas, Environmental Education Facility (Egg Collection Facility)",Winter,Y,Y,
Army Corps,Lake O' The Pines,2669 FM 729,Jefferson,Texas,75657,(903) 665-2336,http://www.swf-wc.usace.army.mil/lakeopines/,"Restrooms, Visitor Center, Group Shelters, Day Use Areas, Camping Facilities, Boat Ramps",All Year,Y,Y,
Army Corps,Lake Seminole,2382 Booster Club Rd,Chattahoochee,Florida,32324,(229) 662-2001,http://www.sam.usace.army.mil/Missions/Civil-Works/Recreation/Lake-Seminole/,"restrooms,visitor center, day use, group shelters",All Year - By Request,Y,Y,
Army Corps,Lake Sidney Lanier,1050 Buford Dam Road,Buford,Georgia,30518,(770) 945-9531,http://www.sam.usace.army.mil/Missions/Civil-Works/Recreation/Lake-Sidney-Lanier/,"restrooms,visitor center, day use, group shelters",All Year - By Request,Y,Y,
Army Corps,Lake Sonoma,3333 Skaggs Springs Rd ,Geyserville,California,95441,(707) 431-4533,http://www.spn.usace.army.mil/Missions/Recreation/Lake/,"Restrooms, Visitor Center, Camping, Group Shelters, Day Use Areas, Environmental Education Facility (Fish Hatchery)",All Year ,Y,Y,
Army Corps,Lavon,3375 Skyview Drive,Wylie,Texas,75098,(972) 442-3141,http://www.swf-wc.usace.army.mil/lavon/,"RR & Day Use Areas @ Avalon, East Fork, Lavonia, Pebble Beach, Mallard, Little Ridge, Tickey Creek & Clear Lake Parks","Fall, Winter",Y,Y,
Army Corps,Lewisville,1801 N. Mill,Lewisville,Texas,75057,(469) 645-9100,http://www.swf-wc.usace.army.mil/lewisville/,RR & Day Use Area @ Westlake Park,"Fall, Winter",Y,Y,
Army Corps,Libby Dam Visitor Center,260 Souse Gulch Road,Libby,Montana,59923,(406) 293-5577,http://www.nws.usace.army.mil/Missions/Civil-Works/Locks-and-Dams/Libby-Dam/,"Visitor Center with movie theater, large meeting rooms downstairs, restrooms, picnic shelters (3), boat ramp, Day use area, disc golf course, nature trail. ","Field trips & class tours: Spring and Fall.  Classroom visits, Fall and Winter. General tours, Summer.  # of programs available is limited by staff (one person) - book early!",Y,Y,
Army Corps,Littleville Lake,32 Goss Hill Road,Huntington,Massachusetts,01050,(413) 667-3656,http://www.nae.usace.army.mil/Missions/Recreation/Littleville-Lake/,"day use areas, boat launch",All Year - By Request,Y,Y,
Army Corps,Long Branch Project Office,30174 Visitor Center Road,Maccon,Missouri,63552,(660) 385-2108,http://www.nwk.usace.army.mil/Locations/,"Restroom, Visitor Center, other",All Year ,Y,N,
Army Corps,Lookout Point Lake,40386 West Boundary Road,Lowell,Oregon,97452,(541) 942-5631,http://www.nwp.usace.army.mil/Locations/Willamette-Valley/Lookout-Point/,"Restrooms, Day use areas","Winter, Spring, Fall",Y,Y,
Army Corps,Martins Fork Lake and Dam,5965 Highway 987,Smith,Kentucky,40831,(606) 573-1468,http://www.lrn.usace.army.mil/op/mar/rec,Day use area with 2 group shelters and beach,All,Y,Y,
Army Corps,Martis Creek Lake,11989 Martis Dam Road,Truckee,California,96161,(530) 587-8113,http://www.spk.usace.army.mil/Locations/Sacramento-District-Parks/Martis-Creek-Lake/,"Information Center, Camping, Day Use, Picnic Shelters, Amphitheatre, Restrooms",May-October,N,Y,
Army Corps,McNary Lock and Dam - Lake Wallula - Hood Park Amphitheater,Hood Park,Burbank,Washington,99323,(509) 547-2048,https://www.facebook.com/IceHarborDam,"amphitheater, day use areas, picnic areas, restrooms",Summer (on a schedule--typically Saturday evenings around 7:30 pm),N,Y,
Army Corps,Monroe Lake,1620  E  MONROE DAM CT,BLOOMINGTON,Indiana,47401,(812) 824-9136,http://www.lrl.usace.army.mil/Missions/Civil-Works/Recreation/Lakes/Monroe-Lake/,"Restrooms,  group shelters, day use areas, playgrounds, fishing areas","Spring, Summer, Fall",Y,N,
Army Corps,Mount Morris Dam and Recreation Area,6103 Visitor Center Road,Mount Morris,New York,14510,(585) 658-4790,http://www.lrb.usace.army.mil/Missions/Recreation/Mount-Morris-Dam/,"Day Use Area, Visitor Center, Group shelters, playground, hiking trails, biking trails","Spring, Summer, Fall",Y,Y,
Army Corps,Mountain Home Project Office  (Norfork and Bull Shoals Lakes),324 West 7th Street,Mountain Home,Arkansas,72653,(870) 425-2700,http://www.swl.usace.army.mil/,"Restrooms, Showers, Outdoor Amphitheaters, Group Picnic Shelters, Playgrounds, Day Use Areas, Hiking Trails, Geocaching, Public Campgrounds. ",All Year,Y,Y,
Army Corps,Navarro Mills Lake,1175 FM 667,Purdon,Texas,76679,(254) 578-1431,http://www.swf-wc.usace.army.mil/navarro/,"Group Shelters, Restrooms, Day Use Area","Spring, Fall, Winter",Y,Y,
Army Corps,New Hogan Lake,2713 Hogan Dam Road,Valley Springs,California,95252,(209) 771-1343,http://www.spk.usace.army.mil/Locations/Sacramento-District-Parks/New-Hogan-Lake/,"Information Center, Camping, Day Use, Picnic Shelters, Amphitheatre, Restrooms",All Year,Y,Y,
Army Corps,Nimrod Lake,3 HWY 7 South,Plainview,Arkansas,72857,(479) 272-4324,http://www.swl.usace.army.mil/Missions/Recreation/Lakes/Nimrod-Lake/,"Restrooms, Amphitheater, Group Shelters, Day Use Area, Launch Ramps, Playgrounds,",Year-around,Y,Y,
Army Corps,Nolin River Lake,PO Box 339 ,Bee Spring,Kentucky,42141,(270) 286-4511,http://www.lrl.usace.army.mil/Missions/Civil-Works/Recreation/Lakes/Nolin-River-Lake/,"Restroom, Day Use, Group Shelter, Fishing, Boat Ramp",All Year,Y,Y,
Army Corps,North Hartland Lake,112 Clay Hill Road,Hartland,Vermont,05052,(802) 295-2855,http://www.nae.usace.army.mil/Missions/Recreation/North-Hartland-Lake/,"restrooms, beach, day use areas, group shelters, visitor center, playground",All Year - By Request,Y,Y,
Army Corps,North Springfield Lake,98 Reservoir Road,Springfield,Vermont,05156,(802) 886-2775,http://www.nae.usace.army.mil/Missions/Recreation/North-Springfield-Lake/,"restrooms, beach, boat launch, group shelters, day use areas",All Year - By Request,Y,Y,
Army Corps,Okatibbee Lake,8490 Okatibbee Dam Road,Collinsville,Mississippi,39325,(601) 626-8431,http://www.sam.usace.army.mil/Missions/Civil-Works/Recreation/Okatibbee-Lake/,"restrooms,visitor center, day use, group shelters",Winter - By Request,Y,Y,
Army Corps,OLD HICKORY LAKE,5 POWER PLANT RD,HENDERSONVILLE,Tennessee,37075,(615) 822-4846,http://www.lrn.usace.army.mil/Locations/Lakes/Old-Hickory-Lake/,"Restrooms, Visitor Center, Group shelters, Day use areas",Summer,Y,Y,
Army Corps,Otter Brook Lake,480 Branch Road,Keene,New Hampshire,03431,(603) 352-4130,http://www.nae.usace.army.mil/Missions/Recreation/Otter-Brook-Lake/,"restrooms, beach, boat launch, group shelters, day use areas, ball field, disc golf course",All Year - By Request,Y,Y,
Army Corps,Patoka Lake,4512 N CUZCO RD SOUTH,DUBOIS,Indiana,47527,(812) 678-3761,http://www.lrl.usace.army.mil/Missions/Civil-Works/Recreation/Lakes/Patoka-Lake/,"Restrooms,  group shelters, day use areas, playgrounds, fishing areas","Spring, Summer, Fall",Y,N,
Army Corps,Philpott Lake,1058 Philpott Dam Road,Bassett,Virginia,24055,(276) 629-2703,http://www.saw.usace.army.mil/Locations/DistrictLakesandDams/Philpott.aspx,"Restrooms, Visitor Center, Group Shelter, Day Use Areas, Other: Trails",All Year,Y,Y,
Army Corps,Pine Flat Lake,27295 Pine Flat Road,Sanger,California,93657,(559) 787-2589,http://www.spk.usace.army.mil/Locations/Sacramento-District-Parks/Pine-Flat-Lake/,"Information Center, Camping, Day Use, Picnic Shelters, Amphitheatre, Restrooms",All Year,Y,Y,
Army Corps,Proctor,2180 FM Road 2861,Comanche,Texas,76442,(254) 879-2424,http://www.swf-wc.usace.army.mil/proctor/,"Group Shelters, Restrooms, Day Use Area","Spring, Fall, Winter",Y,Y,
Army Corps,Raystown Lake,6145 Seven Points Road,Hesston,Pennsylvania,16647,(814) 658-3405,https://nab.usace.afpims.mil/Missions/Dams-Recreation/Raystown/,"Restrooms, Visitor Center, Amphitheater, Camping, Day Use Areas, Walking Trails, Mountain Biking trails, Mountain Bike Skills Park, and Shelters",Spring,Y,Y,
Army Corps,Rough River Lake,14957 Falls of Rough Road,Falls of Rough,Kentucky,40119,(270) 257-2061,http://www.lrl.usace.army.mil/Missions/CivilWorks/Recreation/Lakfes-RoughRiverLake,"Restrooms, Amphitheater, Group Shelter, Day Use Areas, Boat Ramps, Public Beach and campgrounds.",All Year,Y,Y,
Army Corps,Sam Rayburn,7696 RR 255 West,Jasper,Texas,75951,(409) 384-5716,http://www.swf-wc.usace.army.mil/samray/,"Restrooms, Visitor Center, Group Shelters, Day Use Areas, Camping Facilities, Boat Ramps",All Year,Y,Y,
Army Corps,Santa Rosa Lake,2528 Joe & Louie Page Road,Santa Rosa,New Mexico,88435,(575) 472-3115,http://www.spa.usace.army.mil/Missions/Civil-Works/Recreation/Santa-Rosa-Lake/,"Information Center, Day Use, Restrooms",None,N,Y,
Army Corps,Smithville Project Office,16311 DD Highway North,Smithville,Missouri,64089,(816) 532-0174,http://www.nwk.usace.army.mil/Locations/,"Restroom, Visitor Center, other",All Year ,Y,N,
Army Corps,Somerville,1560 Thornberry Drive,Somerville,Texas,77879,(979) 596-1622,http://www.swf-wc.usace.army.mil/Somerville,"Restrooms, Group Shelters, Day Use Areas, Camping Facilities, Boat Ramps","Spring, Fall, Winter",Y,Y,
Army Corps,South Florida Operations Office,525 Ridgelawn Road,Clewiston,Florida,33440,(863) 983-8101,http://www.saj.usace.army.mil/Missions/Civil-Works/Lake-Okeechobee/Okeechobee-Waterway-OWW/South-Florida-Operations-Office/,"Restrooms,","Spring, Fall, Winter",Y,Y,
Army Corps,Stanislaus River Parks,17968 Covered Bridge Road,Knight Ferry,California,95361,(209) 881-3517,http://www.spk.usace.army.mil/Locations/Sacramento-District-Parks/Stanislaus-River-Parks/,"Information Center, Camping, Day Use, Picnic Shelters, Restrooms",All Year,N,Y,
Army Corps,Stillhouse Hollow,3740 FM 1670,Belton,Texas,76513,(254) 939-2461,http://www.swf-wc.usace.army.mil/Stillhouse/,"Environmental Education, Restrooms, Group Shelter, Day Use Areas, Camping Facilities, Boat Ramps","Spring, Fall, Winter",Y,Y,
Army Corps,Success Lake,29330 Hwy 190,Porterville,California,93258,(559) 784-0215,http://www.spk.usace.army.mil/Locations/Sacramento-District-Parks/Success-Lake/,"Information Center, Camping, Day Use, Picnic Shelters, Amphitheatre, Restrooms",All Year,Y,Y,
Army Corps,Table Rock,4600 State Highway 165,Branson,Missouri,65616,(501) 340-1943,http://www.swl.usace.army.mil/Missions/Recreation/Lakes/Table-Rock-Lake/,"Visitor Center, Restrooms, Education exhibits, trail",Year-around,Y,Y,
Army Corps,Taylorsville Lake,2825 Overlook Road,Taylorsville ,Kentucky,40071,(502) 477-8882,http://www.lrl.usace.army.mil/Missions/Civil-Works/,"Restrooms, Class C Visitor Center, Day use",All Year,Y,Y,
Army Corps,Tennessee Tombigbee Waterway,3606 West Plymouth Road,Columbus,Mississippi,39701,(662) 327-2142,http://www.sam.usace.army.mil/Missions/Civil-Works/Recreation/TennesseeTombigbee-Waterway/,"Restrooms, Visitor Center, Group shelters, Day use areas",All Year - By Request,Y,Y,
Army Corps,Tennessee Tombigbee Waterway - Bay Springs Resource Office,82 Bay Springs Resource Road,Dennis,Mississippi,38838,(662) 423-1287,http://www.sam.usace.army.mil/Missions/Civil-Works/Recreation/TennesseeTombigbee-Waterway/,"Restrooms, Visitor Center, Group shelters, Day use areas",All Year - By Request,Y,Y,
Army Corps,The Dalles Lock and Dam,3545 Bret Clodfelter Way,The Dalles,Oregon,97058,(541) 506-7857,http://www.nwp.usace.army.mil/Locations/Columbia-River/The-Dalles/,"Restrooms, Visitor Center, Group shelters, Day use areas",All Year,Y,Y,
Army Corps,Tioga-Hammond & Cowanesque Lakes,710 Ives Run Lane,Tioga,Pennsylvania,16946,(570) 835-5281,http://www.nab.usace.army.mil/Missions/Dams-Recreation/Tioga-Hammond/,"Restrooms, Visitor Center, Camping, Day Use Areas, Walking Trails, and Shelters",Spring,Y,Y,
Army Corps,Town Bluff,5171 FM 92 South,Woodville,Texas,75979,(409) 429-3491,http://www.swf-wc.usace.army.mil/townbluff/,"Restrooms, Visitor Center, Group Shelters, Day Use Areas, Camping Facilities, Boat Ramps",All Year,Y,Y,
Army Corps,Trinidad Lake,10950 County Road 18.3,Trinidad,Colorado,81082,(719) 846-7990,http://www.spa.usace.army.mil/Missions/Civil-Works/Recreation/Trinidad-Lake/,"Information Center, Restrooms",None,N,N,
Army Corps,Tully Lake,2 Athol-Richmond Road,Royalston,Massachusetts,01368,(978) 249-9150,http://www.nae.usace.army.mil/Missions/Recreation/Tully-Lake/,"restrooms, day use areas, mountain bike trail, group shelters, disc golf course",All Year - By Request,Y,Y,
Army Corps,W. Kerr Scott Dam and Reservoir,499 Reservoir Road,Wilkesboro,North Carolina,28697,(336) 921-3390,http://www.saw.usace.army.mil/Locations/DistrictLakesandDams/WKerrScott.aspx,"Restrooms, Visitor Center, Environmental Education Facility, Amphitheater, Group Shelter,  Day Use Areas, Other: Trails",All Year,Y,Y,
Army Corps,Waco,3801 Zoo Park Drive,Waco,Texas,76708,(254) 756-5359,http://www.swf-wc.usace.army.mil/waco/,"Group Shelters, Restrooms, Day Use Area","Spring, Fall, Winter",Y,Y,
Army Corps,Walter F. George Lake/George W. Andrews Lake,427 Eufaula Road,Fort Gaines,Georgia,39851,(229) 768-2516,http://www.sam.usace.army.mil/Missions/Civil-Works/Recreation/Walter-F-George-Lake-Lake-George-W-Andrews/,"Restrooms, Visitor Center, Group shelters, Day use areas",All Year -  By Request,Y,Y,
Army Corps,West Fork Lake,10558 McKelvey Rd,Cincinnati,Ohio,45240,(513) 851-0611,http://www.lrl.usace.army.mil/Missions/Civil-Works/Recreation/Lakes/West-Fork-of-Mill-Creek-Lake/,,,N,N,
Army Corps,West Hill Dam ,528 E. Hartford Avenue,Uxbridge,Massachusetts,01569,(508) 278-2511,http://www.nae.usace.army.mil/Missions/Recreation/West-Hill-Dam/,"restrooms, beach, day use areas, group shelters, volleyball court, playground",All Year - By Request,Y,Y,
Army Corps,West Point Lake,500 Resource Management Drive,West Point,Georgia,31833,(706) 645-2937,http://www.sam.usace.army.mil/Missions/Civil-Works/Recreation/West-Point-Lake/,"Restrooms,  Visitor Center, Group shelters, Day use areas",All Year - By Request,Y,Y,
Army Corps,West Thompson lake,449 Reardon Rd,North Grosvenordale,Connecticut,06255,(860) 923-2982,http://www.nae.usace.army.mil/Missions/Recreation/West-Thompson-Lake/,"restrooms, campground, boat launch, day use areas, disc golf course, group shelters",All Year - By Request,Y,Y,
Army Corps,Whitney,285 CR 3602,Clifton,Texas,76634,(254) 622-3189,http://www.swf-wc.usace.army.mil/whitney/,"Group Shelters, Restrooms, Day Use Area","Spring, Fall, Winter",Y,Y,
Army Corps,William H Harsah Lake,2185 Slade Rd,Batavia ,Ohio,45102,(513) 797-6081,http://www.lrl.usace.army.mil/Missions/Civil-Works/Recreation/Lakes/William-H-Harsha-Lake/,"Restrooms, Visitor Center, Environmental education facility, Group shelters, Day use area",All Year,Y,Y,
Army Corps,Wright Patman,64 Clear Springs Park,Texarkana,Texas,75501,(903) 838-8781,http://www.swf-wc.usace.army.mil/wrightpatman/,"Restrooms, Visitor Center, Amphitheater, Group Shelters, Day Use Areas, Camping Facilities, Boat Ramps",All Year,Y,Y,
Army Corps,Hopkinton Everett Lakes,2097 Maple Street,Contoocook,New Hampshire,03229,(603) 746-3601,http://www.nae.usace.army.mil/Missions/Recreation/Hopkinton-Everett-Lake/,"restrooms, group shelters, beach, envrionmental education facility, day use areas, OHRV & Mountain Bike Trails",All Year - By Request,Y,Y,
Army Corps,Lake Seminole (Woodruff/Seminole Site Office),616 Hales Landing Road,Bainbridge,Georgia,39817,(229) 662-2001,http://www.sam.usace.army.mil/Missions/Civil-Works/Recreation/Lake-Seminole/,"Restrooms, Group Shelters, Day Use Areas, Boat Launch",Spring,N,Y,
Army Corps,Lake Seminole (Woodruff/Seminole Site Office),2382 Booster Club Road,Chattahooche,Florida,32324,(229) 662-2001,http://www.sam.usace.army.mil/Missions/Civil-Works/Recreation/Lake-Seminole/,"Restrooms, Visitor Center, Group Shelters, Day Use Areas, Fishing Pier",Spring,N,Y,
Bureau of Reclamation,American River Water Education Center (ARWEC),7785 Folsom Auburn Rd,Folsom,California,95630,(916) 989-7132,http://www.usbr.gov/mp/arwec,"Restrooms, Visitor Center, Environmental education facility, Amphitheater, Demonstration Garden","Winter, Spring, Fall",Y,Y,
Bureau of Reclamation,Lake Berryessa Reservoir, , ,California,94558,(707) 966-2111,http://www.usbr.gov/mp/ccao/berryessa/,"Restrooms, Visitor Center, Group shelters, Day use areas",All Year,N,Y,
Bureau of Reclamation,Riverside Group Use Shelter,7700 Canyon Ferry Road,Helena,Montana,59602,(406) 475-3921,http://www.recreation.gov/camping/riverside-campground-and-group-use-area/r/campgroundDetails.do?contractCode=NRSO&parkId=100030,"Restrooms, Group Shelters, Day Use Areas, Picnic Areas, Picnic Shelters, Beach Access, Fishing, Group Camping, Pets Allowed, Recycling, Swimming, Water, Water Access, Water Activities, Wildlife Viewing","Spring, Summer, Fall",N,Y,
Bureau of Reclamation,New Melones Lake,6850 Studhorse Flat Rd,Sonora,California,95370,(209) 536-9094,http://www.usbr.gov/mp/ccao/newmelones/,"Restrooms, Visitor Center, Environmental education facility, Amphitheater, Group shelters, Day use areas","Spring, Fall",N,Y,
Bureau of Land Management,BLM Campbell Creek Science Center,5600 Science Center Dr,Anchorage,Alaska,99507,(907) 267-1241,http://www.blm.gov/ak/st/en/prog/sciencecenter.html,"Restrooms, Visitor Center, Environmental education facility, Amphitheater, Low-ropes course, activity fields, archaeological mock-dig site",All Year,Y,Y,
Bureau of Land Management,Gunnison Gorge National Conservation Area,2465 S Townsend Ave,Montrose,Colorado,81401,(970) 240-5300,http://www.blm.gov/co/st/en/nca/ggnca.html,"Restrooms, Visitor Center, Group shelters, Day use areas, Universally accessible fishing pier; river access; Off-highway vehicle training area","Spring, Fall",N,Y,
Bureau of Land Management,McInnis Canyons National Conservation Area,2815 H Rd,Grand Junction,Colorado,81506,(970) 244-3000,http://www.blm.gov/co/st/en/BLM_Programs/recreation/recreation_areas0/grand_junction_field/mcinnis_canyons_nca.html,"Restrooms, Visitor Center, Day use areas, Interpreted geology and paleontology hikes; campground","Winter, Spring, Fall",N,Y,
Bureau of Land Management,Garden Park Fossil Area,3028 E Main St,Canon City,Colorado,81212,(719) 269-8500,http://www.handsontheland.org/site-profiles?Itemid=5&alias=garden-park-fossil-area,"Restrooms, Amphitheater, Day use areas",All Year,N,Y,
Bureau of Land Management,Dominguez Escalante National Conservation Area,2815 H Rd,Grand Junction,Colorado,81506,(970) 244-3000,http://www.blm.gov/co/st/en/nca/denca.html,"Restrooms, Visitor Center, Day use areas, Campgrounds","Winter, Spring, Fall",N,Y,
Bureau of Land Management,The Table Rocks Management Area - Upper Table Rock & Lower Table Rock,Table Rock Rd,Central Point,Oregon,97502,(541) 618-2200,http://www.blm.gov/or/resources/recreation/tablerock/index.php,"Restrooms, Guided trails",All Year,Y,Y,
Bureau of Land Management,Wildwood Recreation Area,US 26,Welches,Oregon,97067,(503) 375-5646,http://www.blm.gov/or/resources/recreation/site_info.php?siteid=221,"Restrooms, Group shelters, Day use areas, ADA-accessible wetland boardwalk, underwater viewing chamber, Wild & Scenic River, ball fields, playground","Spring, Summer, Fall",N,Y,
Bureau of Land Management,Yaquina Head Outstanding Natural Area and Interpretive Center,750 NW Lighthouse Dr,Newport,Oregon,97365,(541) 574-3100,http://www.blm.gov/or/resources/recreation/yaquina/index.php,"Restrooms, Visitor Center, Environmental education facility, Day use areas, Lighthouse, Tidepools, ADA accessible",All Year,N,Y,
Bureau of Land Management,Jupiter Inlet Lighthouse Outstanding Natural Area,500 Captain Armours Way,Jupiter,Florida,33469,(561) 747-8380,http://www.blm.gov/es/st/en/prog/NLCS/JIL_ONA.html,"Restrooms, Visitor Center, Environmental education facility, Group shelters, Day use areas, Museum, Observation Deck, Historic Structures, Developed Trails",All Year,N,Y,
Bureau of Land Management,Meadowood Special Recreation Management Area,10406 Gunston Rd,Lorton,Virginia,22079,(703) 339-3467,http://www.blm.gov/es/st/en/fo/lpfo_html.html,"Environmental education facility, Day use areas","Spring, Summer, Fall",N,Y,
Bureau of Land Management,Craters of the Moon National Monument, , ,Idaho,83213,(208) 527-1335,https://www.nps.gov/crmo/index.htm,"Restrooms, Visitor Center, Amphitheater, Day use areas",All Year,N,Y,
Bureau of Land Management,Dedication Point in Morley Nelson Snake River Birds of Prey National Conservation Area, , ,Idaho,83634,(208) 384-3300,http://www.blm.gov/id/st/en/prog/NLCS/MNSRBP_NM.html,"Restrooms, Amphitheater","Spring, Summer, Fall",N,Y,
Bureau of Land Management,Organ Mountains Desert Peaks National Monument - Dripping Springs Natural Area,15000 Dripping Springs Rd,Las Cruces,New Mexico,88011,(575) 525-4487,http://www.blm.gov/nm/st/en/prog/blm_special_areas/national_monuments/omdp_national_monument.html,"Restrooms, Visitor Center, Amphitheater, Group shelters, Day use areas","Winter, Spring, Fall",Y,Y,
Bureau of Land Management,El Malpais National Conservation Area, ,Grants,New Mexico,87020,(505) 280-2918,http://www.blm.gov/nmn/st/en/prog/rio_puerco/el_malpais,"Restrooms, Visitor Center, Environmental education facility, Group shelters, Day use areas, Nature trail",All Year,N,Y,
Bureau of Land Management,Kasha-Katuwe Tent Rocks National Monument, ,Cochiti,New Mexico,87072,(505) 331-6259,http://www.blm.gov/nm/st/en/prog/recreation/rio_puerco/kasha_katuwe_tent_rocks.html,"Restrooms, Group shelters, Day use areas, Veterans' Memorial/Overlook",All Year,N,Y,
Bureau of Land Management,Rio Grande del Norte National Monument - Rio Grande Gorge Visitor Center and Orilla Verde area,2873 NM 68,Pilar,New Mexico,87531,(575) 751-4899,http://www.blm.gov/nm/st/en/prog/NLCS/RGDN_NM.html,"Restrooms, Visitor Center, Group shelters, Day use areas, Hiking trails",All Year,Y,Y,
Bureau of Land Management,Cosumnes River Preserve,13501 Franklin Blvd,Galt,California,95632,(916) 684-2186,http://www.cosumnes.org,"Restrooms, Visitor Center, Environmental education facility, Group shelters, Day use areas, Trails, Viewing Platforms",All Year,N,Y,
Bureau of Land Management,Sloan Canyon National Conservation Area, ,Henderson,Nevada,89044,(775) 515-5355,http://www.blm.gov/nv/st/en/fo/lvfo/blm_programs/blm_special_areas/sloan_canyon_nca.html,"Petroglyph site, trails","Winter, Spring, Fall",Y,Y,
Bureau of Land Management,CaliforniaTrail Interpretive Center, ,Elko,Nevada,89801,(775) 738-1849,http://www.blm.gov/nv/st/en/fo/elko_field_office/blm_programs/blm_special_areas/california_trail_historic.html,"Restrooms, Visitor Center, Environmental education facility, Short trail with overlook","Spring, Summer, Fall",N,Y,
Bureau of Land Management,Red Rock Canyon National Conservation Area, ,Las Vegas,Nevada,89161,(702) 515-5350,http://www.blm.gov/nv/st/en/fo/lvfo/blm_programs/blm_special_areas/red_rock_nca.html,"Restrooms, Visitor Center, Environmental education facility, Amphitheater, Group shelters, Day use areas, Trails","Winter, Spring, Fall",Y,Y,
Bureau of Land Management,Dankworth Village, ,Safford,Arizona,85546,(928) 348-4453,http://www.blm.gov/az/st/en/prog/cultural/dankworth.html,"Restrooms, Environmental education facility, Group shelters, Day use areas","Winter, Spring, Fall",N,Y,
Bureau of Land Management,Serna Cabin/Bonita Creek Watchable Wildlife Area, ,Safford,Arizona,85546,(928) 348-4453,http://www.blm.gov/az/st/en/prog/blm_special_areas/ncarea/gbox/watchable.html,"Restrooms, Environmental education facility, Group shelters, Day use areas, Wildlife viewing platform & Interpretive panels","Winter, Spring, Fall",N,Y,
Bureau of Land Management,Fort Ord National Monument, ,Marina,California,93933,(831) 394-8314,http://www.blm.gov/ca/st/en/fo/hollister/fort_ord/index.html,"Restrooms, Group shelters, Day use areas","Winter, Spring, Fall",Y,Y,
Bureau of Land Management,Garnet Ghost Town, , ,Montana,59804,(406) 329-3914,http://www.blm.gov/mt/st/en/fo/missoula_field_office/garnet_ghost_town.html,"Restrooms, Visitor Center, picnic tables, water","Summer, Fall",N,Y,
Bureau of Land Management,Missouri Breaks Interpretive Center,701 7th St,Fort Benton,Montana,59442,(877) 256-3252,http://www.blm.gov/mt/st/en/prog/nlcs_new/UMRB_NM.html,"Restrooms, Visitor Center, Environmental education facility, Amphitheater, Day use areas","Spring, Summer, Fall",N,Y,
Bureau of Land Management,Pompeys Pillar National Monument,3001 Highway 312,Worden,Montana,59088,(406) 670-3908,http://www.blm.gov/mt/st/en/prog/nlcs_new/POMPEYSPILLAR_NM.html,"Restrooms, Visitor Center, Environmental education facility, Amphitheater, Day use areas, Trail; Historic site","Spring, Summer, Fall",N,Y,
Bureau of Land Management,National Historic Trails Interpretive Center,1501 N Poplar St,Casper,Wyoming,82601,(307) 261-7787,http://www.blm.gov/wy/st/en/NHTIC.html,"Restrooms, Visitor Center",Spring,N,Y,
Bureau of Land Management,Grand Staircase-Escalante National Monument,669 S Highway 89A,Kanab,Utah,84741,(435) 644-1200,http://www.blm.gov/ut/st/en/fo/grand_staircase-escalante.html,"Restrooms, Visitor Center, Environmental education facility, Amphitheater, Day use areas, Campgrounds; trails; wilderness area","Spring, Fall",N,Y,
Bureau of Land Management,Mill Canyon Dinosaur Tracksite, , ,Utah,84532,(435) 259-2179,http://www.handsontheland.org/profile/mill-canyon-dinosaur-tracksite,Self-guided interpretive trail,All Year,N,Y,
Bureau of Land Management,Calf Creek Recreation Area,State Hwy 12,Escalante,Utah,84726,(435) 644-1234,https://frontierscienceschool.squarespace.com/every-kid-in-a-park/,"Restrooms, Day Use Areas, Campground","Spring, Summer, Fall",N,Y,
Bureau of Land Management,Amboy Crater,Route 66,Amboy,California,92304,(760) 326-7000,http://www.blm.gov/ca/st/en/fo/needles/amboy.html,"Restrooms, Day use areas, Other: Hiking trail",Winter,Y,Y,
Bureau of Land Management,Cleveland-Lloyd Dinosaur Quarry, , ,Utah,84501,(435) 636-3600,http://www.blm.gov/ut/st/en/fo/price/recreation/quarry.html,"Restrooms, Visitor Center, Environmental education facility, Day use areas, Trails",All Year,N,Y,
U.S. Fish and Wildlife Service,Kawainui Marsh,704 Kaha St,Kailua,Hawaii,96734,(808) 587-0166,http://dlnr.hawaii.gov/wildlife/info/kawainui-marsh-wetland-restoration-and-habitat-enhancement-plan/,"Environmental education facility, Amphitheater, Day use areas",All Year,N,Y,
U.S. Fish and Wildlife Service,Arthur R. Marshall Loxahatchee National Wildlife Refuge,10216 Lee Road,Boynton Beach,Florida,33473,(561) 734-8303,https://www.fws.gov/refuge/arm_loxahatchee/,"Indoor & outdoor restrooms, Visitor Center, ADA-accessible boardwalk, hiking trails, observation platform & tower, fishing pier",All Year - Especially Winter,Y,Y,
U.S. Fish and Wildlife Service,Sacramento National Wildlife Refuge,752 County Rd 99W,Willows,California,95988,(530) 934-2801,http://www.fws.gov/refuge/sacramento/,"visitor center, restrooms, picnic tables",Winter,Y,Y,
U.S. Fish and Wildlife Service,Back Bay NWR,4005 Sandpiper Rd.,Virginia Beach,Virginia,23456,(757) 301-7329,http://www.fws.gov/refuge/back_bay,"Restrooms, Visitor Center, Environmental Education facility, Day use areas (freshwater marsh and beach)",All Year,Y,Y,
U.S. Fish and Wildlife Service,Wheeler National Wildlife Refuge,Visitor Center Rd,Decatur,Alabama,35603,(256) 350-6639,http://www.fws.gov/refuge/Wheeler/,"Visitor center, auto driving route, trails, bicycling tour route","All Year - Peak During Fall, Winter & Spring",N,Y,
U.S. Fish and Wildlife Service,Alaska Maritime National Wildlife Refuge,95 Sterling Hwy,Homer,Alaska,99603,(907) 235-6546,http://www.fws.gov/refuge/Alaska_Maritime/visit/visitor_center.html,"Visitor Center, restrooms","Spring, Summer, Fall",N,Y,
U.S. Fish and Wildlife Service,Kenai National Wildlife Refuge, ,Soldotna,Alaska,99669,(907) 260-2820,http://www.fws.gov/refuge/kenai/,"visitor/education center, trails, outdoor recreation, restrooms","All Year - Peak During Spring, Summer & Fall",N,Y,
U.S. Fish and Wildlife Service,Felsenthal National Wildlife Refuge,5531 W US 82,Crossett,Arkansas,71635,(870) 364-3167,http://www.fws.gov/refuge/Felsenthal/,Visitor Center w/exhibits,"All Year - Peak During Fall, Winter & Spring",N,Y,
U.S. Fish and Wildlife Service,Don Edwards San Francisco Bay National Wildlife Refuge,Marshlands Rd,Fremont,California,94555,(510) 792-0222,http://www.fws.gov/refuge/don_edwards_san_francisco_bay/,"Visitor Center, trails, outdoor classrooms",All Year,N,Y,
U.S. Fish and Wildlife Service,San Diego Bay National Wildlife Refuge,1080 Gunpowder Point Dr,Chula Vista,California,91910,(619) 476-9150,http://www.fws.gov/refuge/san_diego_bay/,"Visitor center, education center, trails, observation platforms","All Year - Peak During Fall, Winter & Spring",N,Y,
U.S. Fish and Wildlife Service,San Luis National Wildlife Refuge,Wolfsen Rd,Los Banos,California,93635,(209) 826-3508,http://www.fws.gov/Refuge/San_Luis/,"Visitor center, education center, trails, auto tour route, observation platforms","All Year - Peak During Fall, Winter & Spring",N,Y,
U.S. Fish and Wildlife Service,Rocky Mountain Arsenal National Wildlife Refuge,Gateway Rd,Commerce City,Colorado,80022,(303) 289-0930,http://www.fws.gov/refuge/rocky_mountain_arsenal/,"Visitor center, education center, trails, driving route, fishing areas","All Year - Peak During Fall, Winter & Spring",N,Y,
U.S. Fish and Wildlife Service,Prime Hook National Wildlife Refuge,11978 Turkle Pond Rd,Milton,Delaware,19968,(302) 684-8419,http://www.fws.gov/refuge/Prime_Hook/,"Visitor center, trails, driving route","All Year - Peak During Fall, Winter & Spring",N,Y,
U.S. Fish and Wildlife Service,J.N. Ding Darling National Wildlife Refuge,1 Wildlife Dr,Sanibel,Florida,33957,(239) 472-1100,http://www.fws.gov/refuge/jn_ding_darling/,"Visitor and Education Center, trails, auto tour route",All Year,N,Y,
U.S. Fish and Wildlife Service,St Marks National Wildlife Refuge, ,Saint Marks,Florida,32355,(850) 925-6121,http://www.fws.gov/refuge/st_marks/,"trails, education center, driving route, lighthouse, visitor center","All Year - Peak During Fall, Winter & Spring",N,Y,
U.S. Fish and Wildlife Service,Okefenokee National Wildlife Refuge,2700 Suwannee Canal Rd,Folkston,Georgia,31537,(912) 496-7836,http://www.fws.gov/refuge/okefenokee/,"visitor center, trails, driving route","Spring, Fall",N,Y,
U.S. Fish and Wildlife Service,Kilauea Point National Wildlife Refuge, ,Kilauea,Hawaii,96754,(808) 828-1413,http://www.fws.gov/refuge/kilauea_point/,"lighthouse, visitor center, short trails, overlook","Spring, Fall, Winter",N,Y,
U.S. Fish and Wildlife Service,Deer Flat National Wildlife Refuge,Upper Embankment Rd,Nampa,Idaho,83686,(208) 467-9278,http://www.fws.gov/deerflat/,"visitor center, education center, trails, auto tour route","All Year - Peak During Fall, Winter & Spring",N,Y,
U.S. Fish and Wildlife Service,Kootenai National Wildlife Refuge,287 Westside Rd,Bonners Ferry,Idaho,83805,(208) 267-3888,http://www.fws.gov/refuge/kootenai/,"education center, trails, auto tour route","All Year - Peak During Fall, Winter & Spring",N,Y,
U.S. Fish and Wildlife Service,Crab Orchard National Wildlife Refuge,8588 Route 148,Marion,Illinois,62959,(618) 997-3344,http://www.fws.gov/refuge/crab_orchard/,"Visitor center, education center, trails, driving route","All Year - Peak During Fall, Winter & Spring",N,Y,
U.S. Fish and Wildlife Service,Muscatatuck National Wildlife Refuge, ,Seymour,Indiana,47274,(812) 522-4352,http://www.fws.gov/refuge/muscatatuck/,"Visitor center, trails, auto tour route, observation platforms","All Year - Peak During Fall, Winter & Spring",N,Y,
U.S. Fish and Wildlife Service,Desoto National Wildlife Refuge,1434 316th Ln,Missouri Valley,Iowa,51555,(712) 388-4800,http://www.fws.gov/refuge/Desoto/,"visitor center, trails,  auto and bicycle tour route","All Year - Peak During Fall, Winter & Spring",N,Y,
U.S. Fish and Wildlife Service,Neal Smith National Wildlife Refuge,9981 Pacific St,Prairie City,Iowa,50228,(515) 994-3400,http://www.fws.gov/refuge/Neal_Smith/,"visitor/education center, trails,  auto tour route","All Year - Peak During Fall, Winter & Spring",N,Y,
U.S. Fish and Wildlife Service,Great Plains Nature Center,6232 E 29th St N,Wichita,Kansas,67220,(316) 683-5499,http://www.gpnc.org/,"visitor/education center, trails,","All Year - Peak During Fall, Winter & Spring",N,Y,
U.S. Fish and Wildlife Service,Black Bayou Lake National Wildlife Refuge, ,Monroe,Louisiana,71203,(318) 387-1114,http://www.fws.gov/northlouisiana/blackbayoulake/,"Visitor center, education center, amphitheater, arboretum, trails, observation platform","All Year - Peak During Fall, Winter & Spring",N,Y,
U.S. Fish and Wildlife Service,Red River National Wildlife Refuge,Eagle Bend Pt,Bossier City,Louisiana,71112,(318) 742-1219,http://www.fws.gov/refuge/Red_River/,"Visitor center, education center, trails, observation platform","All Year - Peak During Fall, Winter & Spring",N,Y,
U.S. Fish and Wildlife Service,Maine Coastal Islands National Wildlife Refuge,9 Water St,Rockland,Maine,04841,(207) 594-0600,http://www.fws.gov/refuge/maine_coastal_islands/,Visitor Center,March - November,N,Y,
U.S. Fish and Wildlife Service,Rachel Carson National Wildlife Refuge,321 Port Rd,Wells,Maine,04090,(207) 646-9226,http://www.fws.gov/refuge/rachel_carson/,"visitor contact station, trails,","All Year - Peak During Fall, Winter & Spring",N,Y,
U.S. Fish and Wildlife Service,Blackwater National Wildlife Refuge,2145 Key Wallace Dr,Cambridge,Maryland,21613,(410) 228-2677,https://www.fws.gov/refuge/Blackwater/,"visitor/education center, trails,  auto tour route, bicycling routes","All Year - Peak During Fall, Winter & Spring",N,Y,
U.S. Fish and Wildlife Service,Patuxent Research Refuge,10901 Scarlet Tanager Loop,Laurel,Maryland,20708,(301) 497-5763,http://www.fws.gov/refuge/patuxent/,"visitor/education center, trails,  auto tour route, outdoor classroom kiosks for educator materials and resources","All Year - Peak During Fall, Winter & Spring",N,Y,
U.S. Fish and Wildlife Service,Parker River National Wildlife Refuge,6 Plum Island Tpke,Newburyport,Massachusetts,01950,(978) 465-5753,http://www.fws.gov/refuge/parker_river/,"visitor center, education center, auditorium, exhibits, auto tour route, trails, observation towers, outdoor recreation",All Year,N,Y,
U.S. Fish and Wildlife Service,Eastern Massachusetts National Wildlife Refuge Complex,73 Weir Hill Rd,Sudbury,Massachusetts,01776,(978) 443-4661,http://www.fws.gov/refuge/Great_Meadows/About_the_Complex.html,"Visitor Center, trails","All Year - Peak During Fall, Winter & Spring",N,Y,
U.S. Fish and Wildlife Service,Silvio Conte National Wildlife Refuge,103 E Plumtree Rd,Sunderland,Massachusetts,01375,(413) 548-8002,http://www.fws.gov/refuge/Silvio_O_Conte/,"visitor/education center, trails","All Year - Peak During Fall, Winter & Spring",N,Y,
U.S. Fish and Wildlife Service,Seney National Wildlife Refuge,1674 Refuge Entrance Rd,Seney,Michigan,49883,(906) 586-9851,http://www.fws.gov/refuge/Seney/,"Visitor center, trails, observation platform","All Year - Peak During Srping, Summer & Fall",N,Y,
U.S. Fish and Wildlife Service,Prairie Wetlands Learning Center,602 MN 210 E,Fergus Falls,Minnesota,56537,(218) 739-2291,http://www.fws.gov/refuge/fergus_falls_wmd/,"education center, trails",All Year,N,Y,
U.S. Fish and Wildlife Service,MS Sandhill Crane National Wildlife Refuge,7200 Crane Ln,Gautier,Mississippi,39553,(228) 497-6322,http://www.fws.gov/refuge/mississippi_sandhill_crane/,"Visitor center, auditorium,  trails","All Year - Peak During Fall, Winter & Spring",N,Y,
U.S. Fish and Wildlife Service,Sam D Hamilton Noxubee National Wildlife Refuge,Bluff Lake Rd,Brooksville,Mississippi,39739,(662) 323-5548,http://www.fws.gov/refuge/Noxubee/,"Visitor center, education center, trails, observation platforms","All Year - Peak During Fall, Winter & Spring",N,Y,
U.S. Fish and Wildlife Service,Mingo National Wildlife Refuge,24279 MO 51,Puxico,Missouri,63960,(573) 222-3589,http://www.fws.gov/refuge/Mingo/,"visitor center, theater, trails,  auto tour route","All Year - Peak During Fall, Winter & Spring",N,Y,
U.S. Fish and Wildlife Service,Lee Metcalf National Wildlife Refuge,4567 Wildfowl Ln,Stevensville,Montana,59870,(406) 777-5552,http://www.fws.gov/refuge/Lee_Metcalf/,"Visitor center, outdoor amphitheater, conference room, 2 outdoor EE shelters, trails, driving route","All Year - Peak During Fall, Winter & Spring",N,Y,
U.S. Fish and Wildlife Service,Fort Niobrara National Wildlife Refuge,Refuge Rd,Valentine,Nebraska,69201,(402) 376-3789,http://www.fws.gov/refuge/fort_niobrara/,"visitor education center, auto tour route, trails, outdoor recreation",March - November,N,Y,
U.S. Fish and Wildlife Service,Desert National Wildlife Refuge,16001 Corn Creek Rd,Las Vegas,Nevada,89124,(702) 879-6110,http://www.fws.gov/refuge/desert/,"Visitor center, exhibits, education center, trails, primitive camping",All Year,N,Y,
U.S. Fish and Wildlife Service,Forsythe National Wildlife Refuge,800 Great Creek Rd,Galloway,New Jersey,08231,(609) 652-1665,http://www.fws.gov/refuge/Edwin_B_Forsythe/,"visitor education center, trails, outdoor recreation","All Year - Peak During Spring, Summer & Fall",N,Y,
U.S. Fish and Wildlife Service,Bosque Del Apache National Wildlife Refuge,Lane 1,Para__aque,New Mexico,87832,(575) 835-1828,http://www.fws.gov/refuge/bosque_del_apache/,"Visitor Center, education center, trails, auto tour route, outdoor recreation",All Year,N,Y,
U.S. Fish and Wildlife Service,Bitter Lake National Wildlife Refuge,4200 W Pine Lodge Rd,Roswell,New Mexico,88201,(575) 622-6755,http://www.fws.gov/refuge/Bitter_Lake/,"visitor education center, trails, outdoor recreation",All Year,N,Y,
U.S. Fish and Wildlife Service,Sevilleta National Wildlife Refuge, ,Socorro,New Mexico,87801,(505) 864-4021,http://www.fws.gov/refuge/Sevilleta/,"visitor education center, trails, outdoor recreation",All Year,N,Y,
U.S. Fish and Wildlife Service,Iroquois National Wildlife Refuge,1101 Casey Rd,Basom,New York,14013,(585) 948-5445,http://www.fws.gov/refuge/iroquois/,"visitor education center, trails, outdoor recreation","All Year - Peak During Spring, Summer & Fall",N,Y,
U.S. Fish and Wildlife Service,Montezuma National Wildlife Refuge,US 20,Seneca Falls,New York,13148,(315) 568-5987,http://www.fws.gov/refuge/montezuma/,"visitor education center, trails, outdoor recreation","All Year - Peak During Spring, Summer & Fall",N,Y,
U.S. Fish and Wildlife Service,Wertheim National Wildlife Refuge,340 Smith Rd,Shirley,New York,11967,(631) 286-0485,http://www.fws.gov/refuge/wertheim/,"visitor education center, trails, outdoor recreation","All Year - Peak During Spring, Summer & Fall",N,Y,
U.S. Fish and Wildlife Service,Alligator River National Wildlife Refuge, ,Manteo,North Carolina,27954,(252) 473-1131,http://www.fws.gov/refuge/Alligator_River/,"visitor education center, trails, outdoor recreation",All Year,N,Y,
U.S. Fish and Wildlife Service,Pea Island National Wildlife Refuge, ,Manteo,North Carolina,27954,(252) 987-2394,http://www.fws.gov/refuge/pea_island/,"visitor education center, trails, outdoor recreation",All Year,N,Y,
U.S. Fish and Wildlife Service,Audubon National Wildlife Refuge,3275 11th St NW,Coleharbor,North Dakota,58531,(701) 442-5474,http://www.fws.gov/refuge/audubon/,"visitor education center (Mon - Fri), trails, outdoor recreation",All Year,N,Y,
U.S. Fish and Wildlife Service,Sullys Hill National Game Preserve, ,Fort Totten,North Dakota,58335,(701) 766-4272,http://www.fws.gov/refuge/Sullys_Hill_National_Game_Preserve/,"visitor education center (Tues - Sat), trails, outdoor recreation","Spring, Fall",N,Y,
U.S. Fish and Wildlife Service,Ottawa National Wildlife Refuge,14000 W State Route 2,Oak Harbor,Ohio,43449,(419) 898-0014,http://www.fws.gov/refuge/ottawa/,"visitor education center, trails, outdoor recreation",All Year,N,Y,
U.S. Fish and Wildlife Service,Wichita Mountains National Wildlife Refuge,32 Refuge Headquarters Rd,Indiahoma,Oklahoma,73552,(580) 429-2197,http://www.fws.gov/refuge/Wichita_Mountains/,"visitor education center, trails, outdoor recreation",All Year,N,Y,
U.S. Fish and Wildlife Service,Tualatin River National Wildlife Refuge,19255 SW Pacific Hwy W,Sherwood,Oregon,97140,(503) 625-5944,http://www.fws.gov/refuge/Tualatin_River/,"visitor education center, trails, outdoor recreation",All Year,N,Y,
U.S. Fish and Wildlife Service,John Heinz at Tinicum National Wildlife Refuge,8601 Lindbergh Blvd,Philadelphia,Pennsylvania,19153,(215) 365-3118,http://www.fws.gov/refuge/john_heinz/,"visitor education center, trails, outdoor recreation",All Year,N,Y,
U.S. Fish and Wildlife Service,Vieques National Wildlife Refuge, ,Vieques,Puerto Rico,00765,(787) 741-2138,http://www.fws.gov/caribbean/Refuges/Vieques/,visitor center at headquarters,All Year,N,Y,
U.S. Fish and Wildlife Service,Cabo Rojo National Wildlife Refuge, ,Boqueron,Puerto Rico,00622,(787) 851-7258,http://www.fws.gov/caribbean/refuges/caborojo/outreach.htm,"visitor education center, trails, outdoor recreation",All Year,N,Y,
U.S. Fish and Wildlife Service,Sachuest Point National Wildlife Refuge,50 Bend Rd,Charlestown,Rhode Island,02813,(401) 364-9124,http://www.fws.gov/refuge/sachuest_point/,"visitor education center, trails, outdoor recreation",All Year,N,Y,
U.S. Fish and Wildlife Service,Trustom Pond National Wildlife Refuge,1040 Matunuck School House Rd,South Kingstown,Rhode Island,02879,(401) 364-9124,http://www.fws.gov/refuge/trustom_pond/,"visitor education center, trails, outdoor recreation",All Year,N,Y,
U.S. Fish and Wildlife Service,Savannah National Wildlife Refuge,694 Beech Hill Ln,Hardeeville,South Carolina,29927,(843) 784-2468,http://www.fws.gov/refuge/Savannah/,"visitor education center, trails, outdoor recreation",All Year,N,Y,
U.S. Fish and Wildlife Service,Seewee Visitor and E.E. Center,5821 N Highway 17,Awendaw,South Carolina,29429,(843) 928-3368,http://www.fws.gov/caperomain/seweevisitorcenter.html,"visitor education center, trails, outdoor recreation, red wolf viewing area",All Year,N,Y,
U.S. Fish and Wildlife Service,Sand Lake National Wildlife Refuge,39650 Sand Lake Dr,Columbia,South Dakota,57433,(605) 885-6320,http://www.fws.gov/refuge/Sand_Lake/,"visitor education center, trails, outdoor recreation","Spring, Summer, Fall",N,Y,
U.S. Fish and Wildlife Service,Reelfoot National Wildlife Refuge,4343 Highway 157,Union City,Tennessee,38261,(731) 538-2481,http://www.fws.gov/reelfoot/EE.html,"visitor education center, trails, outdoor recreation",All Year,N,Y,
U.S. Fish and Wildlife Service,Aransas National Wildlife Refuge, ,Austwell,Texas,77950,(361) 286-3559,http://www.fws.gov/refuge/Aransas/,"visitor education center, trails, outdoor recreation",All Year,N,Y,
U.S. Fish and Wildlife Service,Balcones Canyon Lands National Wildlife Refuge,24518 FM-1431,Marble Falls,Texas,78654,(512) 339-9432,http://www.fws.gov/refuge/balcones_canyonlands/,"visitor education center, trails, outdoor recreation",All Year,N,Y,
U.S. Fish and Wildlife Service,Santa Ana National Wildlife Refuge, ,Alamo,Texas,78516,(956) 784-7500,http://www.fws.gov/refuge/Santa_Ana/,"visitor education center, trails, outdoor recreation",All Year,N,Y,
U.S. Fish and Wildlife Service,Bear River Migratory Bird Refuge,2155 W Forest St,Brigham City,Utah,84302,(435) 723-5887,http://www.fws.gov/refuge/bear_river_migratory_bird_refuge/,"visitor education center, trails, auto tour, outdoor recreation",All Year,N,Y,
U.S. Fish and Wildlife Service,Missisquoi National Wildlife Refuge,29 Tabor Rd,Swanton,Vermont,05488,(802) 868-4781,http://www.fws.gov/refuge/Missisquoi/,"visitor education center, trails, outdoor recreation",All Year,N,Y,
U.S. Fish and Wildlife Service,Great Dismal Swamp National Wildlife Refuge,3100 Desert Rd,Suffolk,Virginia,23434,(757) 986-3705,http://www.fws.gov/refuge/great_dismal_swamp/,"visitor education center, trails, outdoor recreation",All Year,N,Y,
U.S. Fish and Wildlife Service,Chincoteague National Wildlife Refuge,8231 Beach Rd,Chincoteague,Virginia,23336,(757) 336-6122,http://www.fws.gov/refuge/chincoteague/,"visitor education center, trails, outdoor recreation",All Year,N,Y,
U.S. Fish and Wildlife Service,Nisqually National Wildlife Refuge,100 Brown Farm Rd NE,Olympia,Washington,98516,(360) 753-9467,http://www.fws.gov/refuge/nisqually/,"visitor education center, trails, outdoor recreation",All Year,N,Y,
U.S. Fish and Wildlife Service,Ridgefield National Wildlife Refuge,28908 NW Main Ave,Ridgefield,Washington,98642,(360) 887-4106,http://www.fws.gov/refuge/Ridgefield/,"visitor education center, trails, outdoor recreation",All Year,N,Y,
U.S. Fish and Wildlife Service,Canaan Valley National Wildlife Refuge, ,Davis,West Virginia,26260,(304) 866-3858,http://www.fws.gov/refuge/Canaan_Valley/,"visitor education center, trails, outdoor recreation",All Year,N,Y,
U.S. Fish and Wildlife Service,Necedah National Wildlife Refuge,N11385 Headquarters Rd,Necedah,Wisconsin,54646,(608) 565-2551,http://www.fws.gov/refuge/necedah/,"visitor education center, trails, outdoor recreation",All Year,N,Y,
U.S. Forest Service,Sandia Mountain Natural History Center,60 Columbine Ln,Cedar Crest,New Mexico,87008,(505) 281-5259,http://www.nmnaturalhistory.org/smnhcabout.html,"Restrooms, Visitor Center, Environmental education facility, Amphitheater",All Year,N,Y,
U.S. Forest Service,"Trestle Recreation Area, Sacramento Ranger District, Lincoln National Forest",US 82,Cloudcroft,New Mexico,88317,(575) 682-2551,http://www.fs.usda.gov/recarea/lincoln/recarea/?recid=34242,"Restrooms, Day use areas, Trails, Interpretive Signs","Summer, Fall",N,Y,
U.S. Forest Service,"Sunspot National Solar Observatory, Sacramento Ranger District, Lincoln National Forest", ,Sunspot,New Mexico,88349,(575) 682-2551,http://nsosp.nso.edu/pr,"Restrooms, Visitor Center, Day use areas",All Year,N,Y,
U.S. Forest Service,Jemez National Recreation Area,51 Woodsy Ln,Jemez Springs,New Mexico,87025,(575) 829-3535,http://www.fs.usda.gov/santafe/,"Restrooms, Group shelters, Day use areas, Ranger Station",All Year,N,Y,
U.S. Forest Service,Ottawa Visitor Center, , ,Michigan,49969,(906) 358-4018,http://www.fs.usda.gov/detailfull/ottawa/home/?cid=FSM8_042650&width=full,"Restrooms, Visitor Center, Environmental education facility, Amphitheater, Day use areas, Interpretive Trail",All Year,N,Y,
U.S. Forest Service,Camp Nesbit, ,Sidnaw,Michigan,49961,(906) 358-4018,http://www.fs.usda.gov/detail/ottawa/learning/?cid=stelprd3819938,"Restrooms, Environmental education facility, Amphitheater, Group shelters, Day use areas, Beach, Ropes Course, Archery Course, Trails","Summer, Fall",Y,Y,
U.S. Forest Service,"Red Canyon Visitor Center, Dixie  National Forest", ,Panguitch,Utah,84759,(435) 676-2676,http://www.fs.usda.gov/recarea/dixie/recreation/outdoorlearning/recarea/?recid=24942,"Restrooms, Visitor Center, Day use areas, Trails, Old guard station","Spring, Summer, Fall",N,Y,
U.S. Forest Service,"Duck Creek Visitor Center, Dixie National Forest", ,Cedar City,Utah,84721,(435) 865-3200,http://www.fs.usda.gov/recarea/dixie/recreation/outdoorlearning/recarea/?recid=24854,"Visitor Center, Day use areas",Summer,Y,Y,
U.S. Forest Service,"Escalante Interagency Visitor Center, Dixie National Forest",755 W Main St,Escalante,Utah,84726,(435) 826-5499,http://www.fs.usda.gov/recarea/dixie/recreation/outdoorlearning/recarea/?recid=24978,"Restrooms, Visitor Center, Day use areas",All Year,N,Y,
U.S. Forest Service,"Pine Valley Heritage Center, Pine Valley Ranger District, Dixie National Forest", ,Pine Valley,Utah,84781,(435) 574-2463,http://www.fs.usda.gov/recarea/dixie/recreation/outdoorlearning/recarea/?recid=24836,"Restrooms, Visitor Center, Campground close by",Summer,N,N,
U.S. Forest Service,"Red Canyon Visitor Center, Flaming Gorge National Recreation Area, Ashley National Forest", , ,Utah,84046,(435) 784-3445,http://www.fs.usda.gov/recarea/ashley/recreation/outdoorlearning/recarea/?recid=72377,"Restrooms, Visitor Center, Day use areas, HIking Trails","Summer, Fall",N,Y,
U.S. Forest Service,"Swett Ranch, Flaming Gorge National Recreation Area, Ashley National Forest", ,Dutch John,Utah,84023,(435) 781-5260,http://www.fs.usda.gov/detail/ashley/learning/history-culture/?cid=stelprdb5274691 Spring through Fall by appointment,"Restrooms, historic ranch",Summer,Y,Y,
U.S. Forest Service,"Lucky Peak Tree Nursery, Boise National Forest",E ID 21,Boise,Idaho,83716,(208) 343-1977,http://www.fs.usda.gov/detail/boise/about-forest/districts/?cid=STELPRDB5038921,Restrooms,Spring,Y,Y,
U.S. Forest Service,"Mesa Falls Visitor Center, Ashton-Island Park Ranger District, Caribou-Targhee National Forest",46 N Highway 20,Ashton,Idaho,83420,(208) 652-7442,http://www.fs.usda.gov/recarea/ctnf/recarea/?recid=80612,"Restrooms, Visitor Center, Day use areas, Trails, Boardwalk to Falls","Spring, Summer, Fall",N,Y,
U.S. Forest Service,"Big Springs Interpretive Area and Trail,  Caribou-Targhee National Forest", ,Ashton,Idaho,83420,(208) 652-7442,http://www.fs.usda.gov/recarea/ctnf/recreation/outdoorlearning/recarea/?recid=53761,"Restrooms, Trails, Historic Cabin","Spring, Summer",N,Y,
U.S. Forest Service,"Minnetonka Cave, Montpelier Ranger District, Caribou-Targhee National Forest", ,Montpelier,Idaho,83254,(435) 245-4422,http://www.fs.usda.gov/recarea/ctnf/recarea/?recid=70736,Restrooms,Summer,Y,Y,
U.S. Forest Service,Hawaii Nature Center,2131 Makiki Heights Dr,Honolulu,Hawaii,96822,(808) 955-0100,http://Hawaiinaturecenter.org,"Restrooms, Visitor Center, Environmental education facility, Amphitheater, Group shelters, Day use areas, stream",All Year,N,Y,
U.S. Forest Service,Maui Hawaii Nature Center,875 Iao Valley Rd,Wailuku,Hawaii,96793,(808) 244-6500,http://Hawaiinaturecenter.org,"Restrooms, Visitor Center, Environmental education facility, Amphitheater, Group shelters, Day use areas",All Year,N,Y,
U.S. Forest Service,Moanalua Valley,1849 Ala Aolani St,Honolulu,Hawaii,96819,(808) 729-1676,http://moanaluagardensfoundation.org/aloha-aina-moanalu-teachers-workshop/,"Restrooms, Group shelters, Day use areas, playground",All Year,N,Y,
U.S. Forest Service,Ho'omaluhia Botanical Gardens,45680 Luluku Rd,Kaneohe,Hawaii,96744,(808) 233-7323,http://www.honolulu.gov/parks/hbg.html,"Restrooms, Visitor Center, Environmental education facility, Amphitheater, Group shelters, Day use areas, overnight camping, fishing",All Year,N,Y,
U.S. Forest Service,Sabino Canyon Recreation Area and Visitor Center,5700 N Sabino Canyon Rd,Tucson,Arizona,85750,(520) 749-8700,http://www.sabinonaturalists.org/school-programs/,"Restrooms, Visitor Center, Environmental education facility, Day use areas, Streams",All Year,N,Y,
U.S. Forest Service,"El Portal Visitors Center, El Yunque National Forest Puerto Rico", , ,Puerto Rico,00745,(787) 888-5646,http://www.elyunque.com/elportal.htm,"Restrooms, Visitor Center, Environmental education facility, Amphitheater, Group shelters, Day use areas",All Year,N,Y,
U.S. Forest Service,"Huron-Manistee National Forests, Lumberman's Monument Visitors Center.",Monument Rd,Oscoda,Michigan,48750,(989) 362-8961,http://www.fs.usda.gov/recarea/hmnf/recarea/?recid=18538,"Restrooms, Visitor Center, Environmental education facility, Day use areas","Spring, Summer, Fall",N,Y,
U.S. Forest Service,Midewin National Tallgrass Prairie,S IL 53,Wilmington,Illinois,60481,(815) 423-6370,http://www.fs.usda.gov/main/midewin/home,"Restrooms, Visitor Center, hiking paths",All Year,N,Y,
U.S. Forest Service,"White Mountain National Forest, Russell-Colbath Historic Site", ,Conway,New Hampshire,03818,(603) 447-5448,http://www.fs.usda.gov/recarea/whitemountain/recreation/recarea/?recid=74925,"Restrooms, Russell Colbath House, wooden barn, interpretive signs","Summer, Fall",N,Y,
U.S. Forest Service,"White Mountain National Forest, Mead Base Conservation Center", ,Center Sandwich,New Hampshire,03227,(603) 284-7007,https://sites.google.com/site/friendsofmead/home,"Restrooms, Visitor Center","Spring, Summer, Fall",N,Y,
U.S. Forest Service,Finger Lakes National Forest, ,Hector,New York,14841,(607) 546-4470,http://www.fs.usda.gov/fingerlakes,"Restrooms, Visitor Center",All Year,N,N,
U.S. Forest Service,Northern Great Lakes Visitor Center,29270 County Highway G,Ashland,Wisconsin,54806,(715) 685-9983,http://www.northerngreatlakescenter.org/,"Restrooms, Visitor Center, Environmental education facility",All Year,N,Y,
U.S. Forest Service,"Monongahela National Forest, Cranberry Mountain Nature Center", ,Hillsboro,West Virginia,24946,(304) 653-4826,http://www.fs.usda.gov/recarea/mnf/recarea/?recid=7049,"Restrooms, Visitor Center, Environmental education facility, Day use areas","Spring, Summer, Fall",N,Y,
U.S. Forest Service,"Monongahela National Forest, Seneca Rocks Discovery Center", ,Seneca Rocks,West Virginia,26884,(304) 567-2827,http://www.fs.usda.gov/recarea/mnf/recarea/?recid=7050,"Restrooms, Visitor Center, Environmental education facility","Spring, Summer, Fall",N,Y,
U.S. Forest Service,"Jackson Hole and Greater Yellowstone Interagency Visitor Center, Bridger-Teton National Forest",532 N Cache St,Jackson,Wyoming,83001,(307) 733-3316,http://www.fws.gov/nwrs/threecolumn.aspx?id=2147509813,"Restrooms, Visitor Center, Day use areas",All Year,N,Y,
U.S. Forest Service,"Bogus Basin Snow School, in cooperation with Boise National Forest",2600 N Bogus Basin Rd,Boise,Idaho,83702,(208) 332-5100,http://www.bogusbasin.org/snowschool-at-bogus-Basin.aspx,"Restrooms, Outdoor ski school",Winter,Y,Y,
U.S. Forest Service,"Galena Creek Visitor Center, Humboldt-Toiyabe National Forest",18250 Mt Rose Hwy,Reno,Nevada,89511,(775) 849-4948,http://www.galenacreekvisitorcenter.org/,"Restrooms, Visitor Center, Day use areas",All Year,N,Y,
U.S. Forest Service,"Spring Mountains Visitor Gateway, Spring Mountains National Recreation Area, Humboldt-Toiyabe National Forest",2525 Kyle Canyon Rd,Las Vegas,Nevada,89130,(702) 872-5486,http://www.gomtcharleston.com/home.html,"Restrooms, Visitor Center, Environmental education facility, Amphitheater, Group shelters, Day use areas, trails",All Year,Y,Y,
U.S. Forest Service,McCall Outdoor Science School in partnership with Payette and Boise National Forests,University Ln,McCall,Idaho,83638,(888) 634-3918,http://www.uidaho.edu/cnr/moss,"Restrooms, Environmental education facility, Outdoor school",All Year,Y,Y,
U.S. Forest Service,Teton Science School in partnership with the Bridget-Teton National Forest,700 Coyote Canyon Rd,Jackson,Wyoming,83001,(307) 733-1313,http://www.tetonscience.org/,Environmental education facility,All Year,Y,Y,
U.S. Forest Service,"Stuart Guard Station, Manti-La Sal National Forest", , ,Utah,84501,(435) 637-2817,http://www.fs.usda.gov/recarea/mantilasal/recreation/recarea/?recid=73378,"Restrooms, Visitor Center, Day use areas","Spring, Summer, Fall",Y,Y,
U.S. Forest Service,Great Basin Environmental Education Center on the Manti-La Sal National Forest, ,Ephraim,Utah,84621,(435) 283-7551,http://www.snow.edu/gbeec/info.html http://www.fs.usda.gov/detail/mantilasal/specialplaces/?cid=stelprdb5294672,"Restrooms, Environmental education facility","Summer, Fall",Y,Y,
U.S. Forest Service,"Sawtooth National Recreation Area Headquarters Visitor Center, Sawtooth National Forest",5 N Fork Canyon Rd,Ketchum,Idaho,83340,(208) 737-3236,http://www.visitidaho.org/attraction/visitor-centers/sawtooth-national-recreation-area-visitor-center/,"Restrooms, Visitor Center, Day use areas",All Year,N,Y,
U.S. Forest Service,"Redfish Lake Visitor Center, Sawtooth National Recreation Area", ,Stanley,Idaho,83278,(208) 774-3376,http://discoversawtooth.org/redfish-center-gallery,"Restrooms, Visitor Center, Amphitheater",Summer,Y,Y,
U.S. Forest Service,"Diamond Fork Youth Forest, Uinta-Wasatch-Cache National Forest",44 W 400 N,Spanish Fork,Utah,84660,(801) 798-3571,http://www.fs.usda.gov/detailfull/uwcnf/learning/?cid=STELPRDB510883,"Restrooms, outdoor classroom",All Year,Y,Y,
U.S. Forest Service,"Cedar City Ranger District, Dixie National Forest", ,Cedar City,Utah,84720,(435) 865-3746,http://www.handsontheland.org/site-profiles?Itemid=5&alias=dixie-national-forest-cedar-city-ranger-district,"Restrooms, outdoor classroom","Spring, Summer, Fall",Y,Y,
U.S. Forest Service,"Silver Lake Visitor Center and Trail, Uinta-Wasatch-Cache National Forest",Big Cottonwood Rd,Salt Lake City,Utah,84121,(801) 466-6411,http://www.fs.fed.us/wildflowers/regions/intermountain/SilverLake/index.shtml,"Restrooms, Environmental education facility, Day use areas, trails","Summer, Fall",N,Y,
U.S. Forest Service,"Warner Mountain Ranger District, Modoc National Forest", ,Cedarville,California,96104,(530) 279-8331,http://www.fs.usda.gov/recarea/modoc/recreation/camping-cabins/recarea/?recid=71242,"Restrooms, camp ground",Spring,N,Y,
U.S. Forest Service,"Green Mountain National Forest, Texas Falls Recreation Area, Robert Frost Interpretative Trail, Warren Falls Recreation Area, Lefferts Pond Recreation Area", , ,Vermont,05767,(802) 747-6700,http://www.fs.usda.gov/recmain/greenmountain/recreation,"Restrooms, Day use areas",Summer,N,Y,
U.S. Forest Service,Stokes Nature Center, ,Logan,Utah,84323,(435) 755-3239,http://logannature.org,"Restrooms, Environmental education facility",All Year,Y,Y,
U.S. Forest Service,"Begich, Boggs Visitor Center",5 Portage Glacier Rd,Anchorage,Alaska,99587,(907) 783-2326,http://www.fs.usda.gov/detail/chugach/home/?cid=stelprdb5251094,"Restrooms, Visitor Center","Spring, Summer, Fall",Y,Y,
U.S. Forest Service,Mendenhall Glacier Visitor Center,8510 Mendenhall Loop Rd,Juneau,Alaska,99801,(907) 789-0097,http://www.fs.usda.gov/detail/tongass/about-forest/offices/?cid=stelprdb5400800,"Restrooms, Visitor Center",All Year,Y,Y,
U.S. Forest Service,Southeast Alaska Discovery Center,50 Main St,Ketchikan,Alaska,99901,(907) 228-6220,http://alaskacenters.gov/ketchikan.cfm,"Restrooms, Visitor Center",All Year,Y,Y,
U.S. Forest Service,"Shawnee National Forest, Lincoln Memorial Site",521 N Main St,Jonesboro,Illinois,62952,(618) 833-8576,http://www.fs.usda.gov/shawnee,"Restrooms, Group shelters, Day use areas, walking path",All Year,N,Y,
U.S. Forest Service,"Stanislaus National Forest, Groveland Ranger District",19777 Greenley Rd,Sonora,California,95370,(209) 532-3671,http://www.fs.usda.gov/detailfull/stanislaus/about-forest/districts/?cid=stelprdb5114226,"Restrooms, Visitor Center, campground",Spring,Y,Y,
U.S. Forest Service,"Mount St Helens National Volcanic Monument, Gifford Pinchot National Forest", , ,Washington,98649,(360) 274-2140,http://www.fs.usda.gov/mountsthelens,"Restrooms, Visitor Center, Amphitheater, Day use areas, lake, boat launch, viewpoints, trails, interpretive trails","Spring, Summer, Fall",N,Y,
U.S. Forest Service,YMCA Camp Sequoia Lake,49761 Highway 180,Miramonte,California,93641,(559) 855-5355,http://goldenstateymca.org/,YMCA Camp with a lake,Fall,Y,Y,
U.S. Forest Service,"National Children's Forest, San Bernardino National Forest",CA 18,Running Springs,California,92382,(909) 867-5996,http://mountainsfoundation.org/childrens-forest,"Restrooms, Visitor Center, Environmental education facility","Spring, Summer",Y,Y,
U.S. Forest Service,"Ancient Bristlecone Pine Visitor Center, Inyo National Forests",351 Pacu Ln,Bishop,California,93515,(760) 873-2400,http://www.fs.usda.gov/gov/recarea/inyo//recarea/?recid=20272,"Restrooms, Visitor Center, Environmental education facility, Day use areas",Summer,Y,Y,
U.S. Forest Service,"Mono Basin National Forest Scenic Area Visitor Center, Inyo National Forest", ,Lee Vining,California,93541,(760) 647-6595,http://www.monolake.org,"Restrooms, Visitor Center, Environmental education facility, Day use areas",All Year,N,Y,
U.S. Forest Service,"Mt. Baldy Visitor Center, Angeles National Forest", ,Mt Baldy,California,91759,(909) 982-2829,http://www.fs.usda.gov/detail/angeles/about-forest/?cid=stelprdb5162105,"Restrooms, Visitor Center, Environmental education facility, Day use areas",All Year,Y,Y,
U.S. Forest Service,"Chilao Visitor Center, Angeles National Forest", ,Palmdale,California,93550,(626) 796-5541,http://www.fs.usda.gov/detail/angeles/about-forest/?cid=stelprdb5162107,"Restrooms, Visitor Center, Group shelters, Day use areas",All Year,Y,Y,
U.S. Forest Service,"Taylor creek Visitor Center, Lake Tahoe Basin Management Unit", ,South Lake Tahoe,California,96150,(530) 542-2908,http://www.fs.usda.gov/goto/ltbmu/TCVCSummerSeries,"Restrooms, Visitor Center, Amphitheater, Day use areas, Beaches and Dunes","Spring, Summer, Fall",Y,Y,
U.S. Forest Service,"Wayne National Forest, Athens Ranger District-Marietta Unit, Leith Run Recreation Area", , ,Ohio,45750,(740) 753-0101,http://www.fs.usda.gov/recarea/wayne/recreation/fishing/recarea/?recid=6215,"Restrooms, Environmental education facility, Group shelters, Day use areas","Spring, Summer, Fall",Y,Y,
U.S. Forest Service,Wayne National Forest Headquarters-Welcome Center,13700 US 33,Nelsonville,Ohio,45764,(740) 753-0101,http://www.fs.usda.gov/recarea/wayne/recarea/?recid=6238,"Restrooms, Visitor Center, Environmental education facility","Spring, Summer, Fall",N,Y,
U.S. Forest Service,"Gold Beach Ranger Station, Rogue - Siskiyou National Forest",29279 Ellensburg Ave,Gold Beach,Oregon,97444,(541) 247-3600,http://www.fs.usda.gov/detail/rogue-siskiyou/about-forest/offices,"Restrooms, Visitor Center",Spring,N,Y,
U.S. Forest Service,Grey Towers National Historic Site,122 Old Owego Tpke,Milford,Pennsylvania,18337,(570) 296-9630,http://www.greytowers.org/ http://www.fs.fed.us/gt/,"Restrooms, Visitor Center, Environmental education facility, Amphitheater, Group shelters, Day use areas, Mansion Tours","Spring, Summer, Fall",N,N,
U.S. Forest Service,National Grasslands Visitors Center,708 Main St,Wall,South Dakota,57790,(605) 279-2125,http://www.fs.usda.gov/detail/nebraska/specialplaces/?cid=stelprdb5228870,"Restrooms, Visitor Center, Environmental education facility, Group shelters, Day use areas",All Year,N,Y,
U.S. Forest Service,Chimney Rock National Monument,CO 151,Pagosa Springs,Colorado,81147,(970) 730-7133,http://www.chimneyrockco.org/,"Restrooms, Visitor Center, Day use areas","Spring, Summer, Fall",N,Y,
U.S. Forest Service,Hudson Meng Bison Bonebed Nebraska National Forest,125 N Main St,Chadron,Nebraska,69337,(308) 432-0300,http://fossilfreeway.net/hudson.php,"Restrooms, Visitor Center, Day use areas","Spring, Summer, Fall",N,Y,
U.S. Forest Service,"Lake Tahoe Basin Management Unit, Taylor Creek Visitor Center", , ,California,96150,(530) 543-2674,http://www.fs.fed.us/r5/ltbmu,"Restrooms, Visitor Center, Environmental education facility, Amphitheater","Summer, Fall",N,Y,
U.S. Forest Service,Lewis and Clark Historic Trail Interpretive Center,4201 Giant Springs Rd,Great Falls,Montana,59405,(406) 727-8733,http://www.fs.usda.gov/recarea/lcnf/recarea/?recid=61458,"Restrooms, Visitor Center, Environmental education facility, Amphitheater, Day use areas, Living History, interpretive presentations",All Year,Y,Y,
U.S. Forest Service,Lolo Pass Visitor Center,44000 Highway 12 W,Lolo,Montana,59847,(208) 942-3113,http://www.fs.usda.gov/detail/r1/specialplaces/?cid=stelprdb5108516,"Restrooms, Visitor Center, Day use areas, Interpretive Trail",All Year,N,Y,
U.S. Forest Service,Quake Lake Visitor Center,US 191,West Yellowstone,Montana,59758,(406) 682-7620,http://www.fs.usda.gov/detail/custergallatin/specialplaces/?cid=stelprdb5127785,"Restrooms, Visitor Center, Group shelters, Theater, book store","Spring, Summer, Fall",N,Y,
U.S. Forest Service,Dakota Prairie Grasslands,2000 Miriam Cir,Bismarck,North Dakota,58501,(701) 989-7300,http://www.fs.usda.gov/dpg/,"Restrooms, Group shelters, Day use areas, Trails",All Year,N,Y,
U.S. Forest Service,Fernow Experimental Forest, , ,West Virginia,26287,(304) 478-2000,http://www.nrs.fs.fed.us/ef/locations/wv/fernow/about/,Driving tour for families,Summer,N,N,
U.S. Forest Service,Hubbard Brook Experimental Forest, , ,New Hampshire,03262,(603) 726-8902,http://www.nrs.fs.fed.us/ef/locations/nh/hubbard-brook/,"Restrooms, conference room",All Year,Y,N,
U.S. Forest Service,El Yunque National Forest El Portal Visitors Center, ,Ro Grande,Puerto Rico,00745,(787) 888-1880,http://www.fs.usda.gov/recarea/elyunque/recreation/outdoorlearning/recarea/?recid=43379,"Restrooms, Visitor Center, Environmental education facility, Amphitheater, Group shelters, Day use areas, wheelchair accessible",All Year,N,Y,
U.S. Forest Service,El Cariso Nature Trail,32353 Ortega Hwy,Lake Elsinore,California,92530,(951) 736-1811,http://www.fs.usda.gov/recarea/cleveland/recreation/hiking/recarea/?recid=47610,"Visitor Center, Agents of Nature mobile game","Winter, Spring, Fall",N,Y,
U.S. Forest Service,Cape Perpetua Visitor Center,2400 Highway 101 S,Yachats,Oregon,97498,(541) 547-3289,http://www.fs.usda.gov/recarea/siuslaw/recreation/recarea/?recid=42279,"Restrooms, Visitor Center, Environmental education facility",All Year,N,Y,
U.S. Forest Service,Multnomah Falls Recreation Area,50000 Historic Columbia River Hwy,Bridal Veil,Oregon,97010,(503) 695-2372,http://www.fs.fed.us/visit/destination/multnomah-falls,"Restrooms, Visitor Center",All Year,N,Y,
U.S. Forest Service,Munford School,365 Cedars Rd,Munford,Alabama,36268,(256) 315-5250,http://mes.tcboe.org/,"Restrooms, Environmental education facility, Day use areas, trails",All Year,Y,Y,
U.S. Forest Service,Blanchard Springs Visitor Center,Blanchard Rd,Fifty Six,Arkansas,72533,(870) 757-2211,http://www.fs.usda.gov/detail/osfnf/specialplaces/?cid=stelprdb5351305,"Restrooms, Visitor Center, Environmental education facility, Group shelters, Day use areas, Cave Tours","Spring, Summer, Fall",Y,Y,
U.S. Forest Service,Brasstown Bald Visitor Center, , ,Georgia,30512,(706) 896-2556,http://cfaia.org/brasstown-bald-recreation-area-visitor-centers-in-georgia/,"Restrooms, Visitor Center, Group shelters, Day use areas, trails and overlook","Spring, Summer, Fall",N,Y,
U.S. Forest Service,Land Between the Lakes National Recreation Area,Visitor Center Dr,Golden Pond,Kentucky,42211,(800) 525-7077,http://www.landbetweenthelakes.us/,"Restrooms, Visitor Center, Environmental education facility, Amphitheater, Group shelters, Day use areas, Water Access, Live Animal Exhibits",All Year,N,Y,
U.S. Forest Service,Gladie Cultural and Environmental Learning Center, , ,Kentucky,40380,(606) 663-8100,http://www.fs.usda.gov/recarea/dbnf/recreation/recarea/?recid=39566,"Restrooms, Visitor Center, Environmental education facility, Amphitheater, Group shelters, Day use areas, Trails",All Year,N,Y,
U.S. Forest Service,Cradle of Forestry--the Birthplace of Forest Conservation in America,Pisgah Hwy,Pisgah Forest,North Carolina,28768,(828) 877-3130,https://www.cradleofforestry.com/site/,"Restrooms, Visitor Center, Environmental education facility, Amphitheater, Group shelters, Day use areas, Living History, trails,",All Year,N,Y,
U.S. Forest Service,Ocoee Whitewater Center,4400 Highway 64,Copperhill,Tennessee,37317,(423) 496-0100,http://www.fs.usda.gov/recarea/cherokee/recarea/?recid=35096,"Restrooms, Visitor Center, Day use areas, Trails","Spring, Summer, Fall",N,Y,
U.S. Forest Service,National Grasslands Visitor Center,708 Main St,Wall,South Dakota,57790,(605) 279-2125,http://www.fs.fed.us/wildflowers/regions/Rocky_Mountain/NGsVisitorCenter/index.shtml,"Restrooms, Visitor Center, public gardens",All Year,N,Y,
U.S. Forest Service,Forest Service Visitor Center,1400 Independence Ave SW,Washington,District of Columbia,20250,(800) 832-1355,http://www.fs.fed.us/info/,Visitor Center,All Year,N,Y,
U.S. Forest Service,Sewee Visitor Environmental Education Center,5821 N Highway 17,Awendaw,South Carolina,29429,(843) 928-3368,http://www.fws.gov/seweecenter/index.html,"Restrooms, Visitor Center, Environmental education facility, Amphitheater, Group shelters, Day use areas, Endangered Red Wolf Exhibit",All Year,N,Y,
U.S. Forest Service,"Johnston Ridge Observatory, Mount St. Helens National Volcanic Monument",24000 Spirit Lake Hwy,Toutle,Washington,98649,(360) 274-2140,http://www.fs.usda.gov/main/mountsthelens/home,"Restrooms, Visitor Center, Amphitheater, Day use areas, Trails","Spring, Summer, Fall",N,Y,
U.S. Forest Service,Mount Evans National Forest,101 Chicago Creek Rd,Idaho Springs,Colorado,80452,(303) 567-3000,http://www.fs.fed.us/wildflowers/regions/Rocky_Mountain/MtsGoliathEvans/index.shtml,"Restrooms, Visitor Center, Environmental education facility, Day use areas","Spring, Summer, Fall",N,Y,
U.S. Forest Service,Maroon Bells Martha Moran & Aspen Center for Environmental Studies (ACES), ,Aspen,Colorado,81611,(970) 925-3445,https://www.aspennature.org/,"Restrooms, Visitor Center, Environmental education facility, Group shelters, Day use areas","Spring, Summer, Fall",N,Y,
U.S. Forest Service,Paonia Forest Ranger District,403 N Rio Grande Ave,Paonia,Colorado,81428,(970) 527-4250,http://www.fs.usda.gov/detail/gmug/news-events/?cid=FSEPRD478298,"Restrooms, Day use area",Fall,Y,Y,
U.S. Forest Service,"Grand Mesa, Uncompahgre and Gunnison National Forest",2251 Hwy 50,Delta ,Colorado,81416,(970) 874-6637,http://www.fs.usda.gov/detail/gmug/learning/kids/?cid=fseprd505184,"Restrooms, Trailhead Parking area",Winter,Y,Y,
U.S. Forest Service,Land Between the Lakes National Recreation Area,238 Visitor Center Drive,Golden Pond,Kentucky,42211,(270) 924-2020,http://www.landbetweenthelakes.us/,"Restrooms, Visitor Center, Environmental Education Facility, Group Shelters, Day Use Areas, Interpretation Programs Galore",Spring,Y,Y,
National Oceanic and Atmospheric Administration,National Marine Sanctuary of American Samoa, , ,American Samoa,96799,(684) 633-6500,http://americansamoa.noaa.gov/about/ocean-center.html,"restrooms, visitor center, environmental education facility, access to public beaches and nearshore marine environment (a.k.a., day use areas)",All Year,Tour Request Form,N,
National Oceanic and Atmospheric Administration,Channel Islands National Marine Sanctuary,Bluefin Cir,Oxnard,California,93035,(805) 966-7107,http://channelislands.noaa.gov/visit/welcome.html,"visitor center, access to public beaches and nearshore marine environment (a.k.a., day use areas)","Spring, Summer, Fall",Registration required for group educational programs and guided tours,Y,
National Oceanic and Atmospheric Administration,"Coastal Discovery Center at San Simeon Bay, Monterey Bay National Marine Sanctuary", , ,California,93452,(805) 927-6575,http://montereybay.noaa.gov/vc/cdc/welcome.html,"restrooms, visitor center, environmental education facility, pier, access to beach and trails","Spring, Summer, Fall",Y,N,
National Oceanic and Atmospheric Administration,Greater Farallones National Marine Sanctuary, , ,California,94129,(415) 561-6622,http://farallones.noaa.gov/visit/,"visitor center, environmental education facility, pier, access to public beaches and coastal areas (a.k.a., day use areas)",All Year,Registration required for group educational programs,N,
National Oceanic and Atmospheric Administration,"Sanctuary Exploration Center, Monterey Bay National Marine Sanctuary",Pacific Ave,Santa Cruz,California,95060,(831) 421-9993,http://montereybay.noaa.gov/vc/sec/,"restrooms, visitor center",All Year,Registration required for group educational programs,N,
National Oceanic and Atmospheric Administration,Monterey Bay National Marine Sanctuary, , ,California,93940,(831) 647-4201,http://montereybay.noaa.gov/visitor/explore.html,"visitor centers, access to public trails, beaches and coastal areas (a.k.a., day use areas)",All Year,Registration required for group educational programs at visitor centers,Y,
National Oceanic and Atmospheric Administration,Delaware National Estuarine Research Reserve,818 Kitts Hummock Rd,Dover,Delaware,19901,(302) 739-6377,http://www.dnrec.delaware.gov/coastal/DNERR/Documents/2013%20School%20Opportunities.pdf,"restrooms, visitor center, environmental education facility, exhibit hall, outdoor classroom, boats, access to trails and coastal areas (a.k.a., day use areas)","Spring, Fall",Registration required for group educational programs,Y,
National Oceanic and Atmospheric Administration,Florida Keys National Marine Sanctuary,35 E Quay Rd,Key West,Florida,33040,(305) 809-4700,http://floridakeys.noaa.gov/visitor_information/,"restrooms, visitor center, access to public beaches and nearshore marine environment (a.k.a., day use areas), offshore mooring bouys (a.k.a., special use areas)",All Year,Call ahead for group visits to the Eco-Discovery Center,N,
National Oceanic and Atmospheric Administration,"Guana Tolomato Matanzas National Estuarine Research Reserve, Environmental Education Center",505 Guana River Rd,Ponte Vedra,Florida,32082,(904) 823-4509,http://www.gtmnerr.org,"restrooms, environmental education facility, amphitheater, exhibit hall, access to trails, lakes and coastal areas (a.k.a., day use areas)",All Year,Registration required for educational programs,Y,
National Oceanic and Atmospheric Administration,Hawaiian Islands Humpback Whale National Marine Sanctuary,726 S Kihei Rd,Kihei,Hawaii,96753,(808) 879-2818,http://hawaiihumpbackwhale.noaa.gov/explore/,"restrooms, visitor center,  traditional fishpond , access to public beaches and nearshore marine environment (a.k.a., day use areas)",All Year,N,N,
National Oceanic and Atmospheric Administration,"Mokuppapa Discovery Center, Papahnaumokukea Marine National Monument",76 Kamehameha Ave,Hilo,Hawaii,96720,(808) 933-8185,http://www.papahanaumokuakea.gov/education/center.html,"bathrooms, visitor center",All Year,Registration required for group educational programs,Y,
National Oceanic and Atmospheric Administration,Stellwagen Bank National Marine Sanctuary,175 Edward Foster Rd,Scituate,Massachusetts,02066,(781) 545-8026,http://stellwagen.noaa.gov/visit/,"access to offshore and coastal marine environments (a.k.a., day use areas), boathouse/meeting space","Spring, Summer, Fall",Y,N,
National Oceanic and Atmospheric Administration,Waquoit Bay National Estuarine Research Reserve,131 Waquoit Hwy,Ea Falmouth,Massachusetts,02536,(508) 457-0495,http://www.waquoitbayreserve.org/visit-the-reserve/,"restrooms, visitor center, environmental education facility, day use areas, access to trails and coastal areas","Spring, Summer, Fall",Y,Y,
National Oceanic and Atmospheric Administration,Thunder Bay National Marine Sanctuary and Great Lakes Maritime Heritage Center,500 W Fletcher St,Alpena,Michigan,49707,(989) 356-8805,http://thunderbay.noaa.gov/visit,"restrooms, visitor center, environmental education facility, access to trails and lake (a.k.a., day use areas), offshore mooring bouys (a.k.a., special use areas)","Spring, Summer, Fall",Registration required for group educational programs,Y,
National Oceanic and Atmospheric Administration,Grand Bay National Estuarine Research Reserve and National Wildlife Refuge,6005 Bayou Heron Rd,Moss Point,Mississippi,39562,(228) 475-7047,http://grandbaynerr.org,"restrooms, visitor center, environmental education facility, amphitheater, fishing pier, boat launch, access to trails and coastal areas (a.k.a., day use areas)","Spring, Fall",Registration required for group educational programs,Y,
National Oceanic and Atmospheric Administration,Great Bay National Estuarine Research Reserve (GBNERR),89 Depot Rd,Greenland,New Hampshire,03840,(603) 778-0015,http://www.greatbay.org,"restrooms, visitor center, access to trails and the estuary (a.k.a., day use areas)","Spring, Fall",Registration required for group educational programs,Y,
National Oceanic and Atmospheric Administration,South Slough National Estuarine Research Reserve,61907 Seven Devils Rd,Coos Bay,Oregon,97420,(541) 888-5558,http://www.southsloughestuary.org,"restrooms, visitor center, environmental education facility, hiking and paddling trails, access to waterways and estuary shoreline (a.k.a., day use areas)",All Year,Registration required for educational programs,Y,
National Oceanic and Atmospheric Administration,"Olympic Coast Discovery Center, Olympic Coast National Marine Sanctuary", ,Port Angeles,Washington,98362,(360) 457-6622,http://olympiccoast.noaa.gov/visitor/discoverycenter/discoverycenter.html,"restrooms, visitor center",Summer,Registration required for educational programs,N,
National Oceanic and Atmospheric Administration,Olympic Coast National Marine Sanctuary, , ,Washington,98362,(360) 457-6622,http://olympiccoast.noaa.gov/visitor,"access to trails and beaches (a.k.a., day use areas)",All Year,Registration required for educational programs,N,
National Oceanic and Atmospheric Administration,Lake Superior National Estuarine Research Reserve, , ,Wisconsin,54880,(715) 392-3141,http://lsnerr.uwex.edu/,"trails, access to estuary, waterways, and coastal areas (a.k.a., day use areas)","Spring, Fall",Registration required for educational programs,Y,
National Oceanic and Atmospheric Administration,Catoctin Mountain Park,6602 Foxville Rd,Thurmont,Maryland,21788,(301) 663-9388,https://www.nps.gov/cato/,"Restrooms, Visitor Center, Day use areas, picnic areas, self guiding trails","Spring, Fall",N,Y, 
National Park Service,National Park of American Samoa,"MHJ Building, 2nd Floor",Pago Pago,American Somoa,96799,(684) 633-7082,https://www.nps.gov/npsa/,Restrooms,All Year,Y,N,
National Park Service,Russell Cave National Monument,3729 County Road 98,Bridgeport,Alabama,35740,(252) 495-2672,https://www.nps.gov/ruca/,"Restrooms, Visitor Center, Day use areas, picnic area, gazebo","Spring, Fall",N,Y,
National Park Service,Tuskegee Airman National Historic Site and Tuskegee Institute, ,Tuskegee,Alabama,36083,(334) 724-0922,https://www.nps.gov/tuai/,"Restrooms, Visitor Center","Winter, Fall",N,Y,
National Park Service,Denali National Park and Preserve, PO Box 9,Denali Park,Alaska,99755,(907) 683-9532,https://www.nps.gov/dena/,"Restrooms, Visitor Center, Environmental education facility, Amphitheater, Group shelters, Day use areas","Spring, Fall",N,Y,
National Park Service,Glacier Bay National Park and Preserve, ,Gustavus,Alaska,99826,(907) 697-2230,https://www.nps.gov/glba/,"Restrooms, Visitor Center","Spring, Fall",N,Y,
National Park Service,Little River Canyon National Preserve,"4322 Little River Trail NE, Suite 100",Fort Payne,Alabama,35967,(256) 845-9605,https://www.nps.gov/liri/,"Restrooms, Day Use Areas",All Year,N,N,
National Park Service,Horseshoe Bend National Military Park,11288 Horseshoe Bend Road,Daviston,Alabama,36256,(256) 234-7111,https://www.nps.gov/hobe/,"Restrooms, Visitor Center",All Year,N,Y,
National Park Service,Bering Land Bridge National Preserve,PO Box 220,Nome,Alaska,99762,(907) 443-2522,https://www.nps.gov/bela/,,"Summer, Fall",N,N,
National Park Service,Gates of the Arctic National Park and Preserve,4175 Geist Road,Fairbanks,Alaska,99709,(907) 457-5752,https://www.nps.gov/gaar/,"Restrooms, Visitor Center, EE Facility","Spring, Summer, Fall",N,Y,
National Park Service,Kenai Fjords National Park,PO Box 1727,Seward,Alaska,99664,(907) 422-0500,https://www.nps.gov/kefj/,"Restroom, Visitor Center","Spring, Summer, Fall",N,Y,
National Park Service,Klondike Gold Rush National Historical Park,P.O. Box 517,Skagway,Alaska,99840,(907) 983-2921,https://www.nps.gov/klgo/,"Restrooms, Visitor Center","Spring, Summer, Fall",N,N,
National Park Service,Wrangell-St. Elias National Park and Preserve,PO Box 439,Copper Center,Alaska,99573,(907) 822-5234,https://www.nps.gov/wrst/,"Restrooms, Visitor Center","Spring, Summer, Fall",Y,N,
National Park Service,Canyon de Chelly National Monument,PO Box 588,Chinle,Arizona,86503,(928) 674-5500,https://www.nps.gov/cach/,"Restrooms, Visitor Center","Winter, Spring, Fall",Y,N,
National Park Service,Casa Grande Ruins National Monument,1100 Ruins Drive,Casa Grande,Arizona,85228,(520) 723-3172,https://www.nps.gov/cagr/,"Restrooms, Visitor Center, Day Use Areas","Winter, Spring, Fall",Y,N,
National Park Service,Chiricahua National Monument,12856 E. Rhyolite Creek Rd.,Willcox,Arizona,85643,(520) 824-3560,https://www.nps.gov/chir/,"Restrooms, Visitor Center","Spring, Fall",Y,N,
National Park Service,Glen Canyon National Recreation Area,PO Box 1507,Page,Arizona,86040,(928) 608-6200,https://www.nps.gov/glca/,"Restrooms, Visitor Center","Spring, Fall, Winter",N,Y,
National Park Service,Lake Mead National Recreation Area,601 Nevada Way,Boulder City,Nevada,89005,(702) 293-8990,https://www.nps.gov/lake/,"Restrooms, Visitor Center","Spring, Fall, Winter",N,Y,
National Park Service,Weir Farm National Historic Site,735 Nod Hill Road,Wilton,Connecticut,06897,(203) 834-1896,https://www.nps.gov/wefa/,"Restrooms, Visitor Center",All Year,Y,Y,
National Park Service,War in the Pacific National Historical Park,"135 Murray Blvd, Suite 100",Hagatna,Guam,96910,(671) 477-7278,https://www.nps.gov/wapa/,"Restrooms, Visitor Center","Spring, Fall, Winter",N,N,
National Park Service,Haleakal National Park,PO Box 369,Makawao,Hawaii,96768,(808) 572-4400,https://www.nps.gov/hale/,"Restrooms, Visitor Center",All Year,Y,N,
National Park Service,Craters of the Moon National Monument and Preserve,PO Box 29,Arco,Idaho,83213,(208) 527-3257,https://www.nps.gov/crmo/,"Restrooms, Visitor Center","Spring, Winter, Fall",N,N,
National Park Service,Lincoln Home National Historic Site,413 S. Eighth Street,Springfield,Illinois,62701,(217) 492-4241,https://www.nps.gov/liho/,"Restrooms, Visitor Center","Spring, Winter, Fall",Y,N,
National Park Service,Effigy Mounds National Monument,151 Highway 76,Harpers Ferry,Iowa,52146,(563) 873-3491,https://www.nps.gov/efmo/,"Restrooms, Visitor Center","Spring, Winter, Fall",N,Y,
National Park Service,Acadia National Park,PO Box 177,Bar Harbor,Maine,04609,(207) 288-3338,https://www.nps.gov/acad/,"Restrooms, Visitor Center",All Year,N,Y,
National Park Service,Pictured Rocks National Lakeshore,PO Box 40,Munising,Michigan,49862,(906) 387-3700,https://www.nps.gov/piro/,"Restrooms, Visitor Center","Spring, Winter, Fall",Y,Y,
National Park Service,Saint-Gaudens National Historic Site,139 Saint Gaudens Road,Cornish,New Hampshire,03745,(603) 675-2175,https://www.nps.gov/saga/,"Restrooms, Visitor Center","Spring, Fall, Summer",Y,N,
National Park Service,Knife River Indian Villages National Historic Site,PO Box 9,Stanton,North Dakota,58571,(701) 745-3300,https://www.nps.gov/knri/,"Restrooms, Visitor Center","Spring, Summer, Fall",Y,N,
National Park Service,Chickasaw National Recreation Area,901 West 1st Street,Sulphur,Oklahoma,73086,(580) 622-7220,https://www.nps.gov/chic/,"Boating, Fishing","Spring, Summer, Fall, Winter",N,Y,
National Park Service,John Day Fossil Beds National Monument,32651 Highway 19,Kimberly,Oregon,97848,(541) 987-2333,https://www.nps.gov/joda/,"Restrooms, Visitor Center","Spring, Winter, Fall",N,Y,
National Park Service,San Juan National Historic Site,501 Calle Norzagaray,San Juan,Puerto Rico,00901,(787) 729-6777,https://www.nps.gov/saju/,"Restrooms, Visitor Center","Spring, Winter, Fall",N,Y,
National Park Service,Jean Lafitte National Historic Park and Preserve,419 Decatur St,New Orleans,Louisiana,70130,(504) 589-2133,https://www.nps.gov/jela/,"Restrooms, Visitor Center","Spring, Fall",N,Y,
National Park Service,Tall Grass Prairie National Preserve,2480 KS 177,Strong City,Kansas,66869,(620) 273-8494,https://www.nps.gov/tapr/,"Restrooms, Visitor Center","Spring, Fall",Y,N,
National Park Service,Mammoth Cave National Park,1 Mammoth Cave Pky,Mammoth Cave,Kentucky,42259,(270) 758-2180,https://www.nps.gov/maca/,"Restrooms, Visitor Center","Spring, Fall",Y,Y,
National Park Service,Mammoth Cave National Park,1 Mammoth Cave Pky,Mammoth Cave,Kentucky,42259,(270) 758-2180,https://www.nps.gov/maca/,"Restrooms, Visitor Center, Day use areas","Spring, Fall",Y,Y,
National Park Service,Cumberland Gap National Historical Park,91 Bartlett Park Rd,Middlesboro,Kentucky,40965,(606) 248-2817,https://www.nps.gov/cuga/,"Restrooms, Visitor Center","Spring, Fall",Y,N,
National Park Service,Assateague Island National Seashore,7206 National Seashore Ln,Berlin,Maryland,21811,(410) 641-1441,https://www.nps.gov/asis/,"Restrooms, Visitor Center, Day use areas","Spring, Fall",Y,Y,
National Park Service,Fort McHenry National Monument,2400 E Fort Ave,Baltimore,Maryland,21230,(410) 962-4290,https://www.nps.gov/fomc/,"Restrooms, Visitor Center, Day use areas","Spring, Fall",Y,Y,
National Park Service,Monocacy National Battlefield,5201 Urbana Pike,Frederick,Maryland,21704,(301) 662-3515,https://www.nps.gov/mono/,"Restrooms, Visitor Center, Day use areas, picnic areas, walk along the river","Spring, Fall",Y,Y,
National Park Service,Mississippi National River and Recreation Area,120 Kellogg Blvd E,St Paul,Minnesota,55101,(651) 293-0200,https://www.nps.gov/miss/,"Restrooms, Visitor Center, Day use areas","Spring, Fall",Y,Y,
National Park Service,Vicksburg National Military Park,3201 Clay St,Vicksburg,Mississippi,39183,(601) 636-0583,https://www.nps.gov/vick/,"Restrooms, Visitor Center, Day use areas","Spring, Fall",Y,Y,
National Park Service,Ulysses S. Grant National Historic Site,7400 Grant Rd,Saint Louis,Missouri,62123,(314) 842-1867,https://www.nps.gov/ulsg/,"Restrooms, Visitor Center, Day use areas","Spring, Fall",Y,Y,
National Park Service,Glacier National Park,PO Box 128,West Glacier,Montana,59936,(406) 888-7800,https://www.nps.gov/glac/,"Restrooms, Visitor Center, Environmental education facility, Day use areas, Snow shoe hikes in winter","Winter, Fall",Y,Y,
National Park Service,Grant-Kohrs Ranch Historic Site,266 Warren Ln,Deer Lodge,Montana,59722,(406) 846-2070,https://www.nps.gov/grko/,"Restrooms, Visitor Center, Day use areas","Spring, Fall",Y,Y,
National Park Service,El Malpais National Monument,1900 W Santa Fe Ave,Grants,New Mexico,87020,(505) 783-4774,https://www.nps.gov/elma/,"Restrooms, Visitor Center","Winter, Spring, Fall",N,N,
National Park Service,Bandelier National Monument,15 Entrance Rd,Los Alamos,New Mexico,87544,(505) 672-3861,https://www.nps.gov/band/,"Restrooms, Visitor Center, Day use areas","Winter, Spring, Fall",Y,Y,
National Park Service,Gateway National Recreation Area,210 New York Ave,Staten Island,New York,10305,(718) 354-4606,https://www.nps.gov/gate/,"Restrooms, Visitor Center, Day use areas, sightseeing along the water's edge","Spring, Fall",Y,Y,
National Park Service,Fire Island National Seashore,120 Laurel St,Patchogue,New York,11772,(631) 687-4750,https://www.nps.gov/fiis/,"Restrooms, Visitor Center, Day use areas","Spring, Fall",Y,Y,
National Park Service,Cape Hatteras National Seashore,1401 National Park Dr,Manteo,North Carolina,27954,(252) 473-2111,https://www.nps.gov/caha/,"Restrooms, Visitor Center, Day use areas, Lighthouse","Spring, Fall",Y,Y,
National Park Service,Wright Brothers National Memorial,1401 National Park Dr,Manteo,North Carolina,27954,(252) 473-2111,https://www.nps.gov/wrbr/,"Restrooms, Visitor Center, Day use areas","Spring, Fall",Y,Y,
National Park Service,Cuyahoga Valley National Park,1550 Boston Mills Rd W,Peninsula,Ohio,44264,(330) 657-2752,https://www.nps.gov/cuva/,"Restrooms, Visitor Center, Environmental education facility, Group shelters, Day use areas, bicycling trails","Spring, Fall",Y,Y,
National Park Service,Congaree National Park,100 National Park Rd,Hopkins,South Carolina,29061,(803) 776-4396,https://www.nps.gov/cong/,"Restrooms, Visitor Center, Environmental education facility, Day use areas, canoe trips","Spring, Fall",Y,Y,
National Park Service,Fort Sumter National Monument,1214 Middle Street,Sullivans Island,South Carolina,29482,(843) 883-3123,https://www.nps.gov/fosu/,"Restrooms, Visitor Center, concession boat trip available","Spring, Fall",Y,Y,
National Park Service,Shiloh National Military Park,1055 Pittsburg Landing Road,Shiloh,Tennessee,38376,(731) 689-5696,https://www.nps.gov/shil/,"Restrooms, Visitor Center, Day use areas","Spring, Fall",Y,Y,
National Park Service,Dinosaur National Monument,4545 US 40,Dinosaur,Colorado,81610,(435) 781-7700,https://www.nps.gov/dino/,"Restrooms, Environmental education facility, Day use areas, quarry tour","Spring, Fall",Y,Y,
National Park Service,Zion National Park,"1 Zion Park Blvd., State Route 9 ",Springdale,Utah,84767,(435) 772-3426,https://www.nps.gov/zion/,"Restrooms, Visitor Center, Day use areas, Hiking Trails - incorporate Leave No Trace","Winter, Spring, Fall",Y,Y,
National Park Service,Prince William Forest Park,18100 Park Headquarters Rd,Triangle,Virginia,22172,(703) 221-4322,https://www.nps.gov/prwi/,"Restrooms, Visitor Center, Environmental education facility, Day use areas, spy camps","Spring, Fall",Y,Y,
National Park Service,Anacostia Park,1900 Anacostia Dr SE,Washington,District of Columbia,20020,(202) 472-3884,https://www.nps.gov/anac/,"Restrooms, Visitor Center","Spring, Fall",N,Y,
National Park Service,Harpers Ferry National Historical Park, ,Harpers Ferry,West Virginia,25425,(304) 535-6029,https://www.nps.gov/hafe/,"Restrooms, Visitor Center, Day use areas","Spring, Fall",Y,Y,
National Park Service,Grand Teton National Park, ,Moose,Wyoming,83012,(307) 739-3300,https://www.nps.gov/grte/,"Restrooms, Visitor Center, Environmental education facility, Day use areas","Winter, Spring, Fall",Y,Y,
National Park Service,National Park of American Samoa,National Rd,Pago Pago,American Samoa,96799,(684) 699-3982,https://www.nps.gov/npsa,"Restrooms, Visitor Center, Environmental education facility, Day use areas",All Year,N,Y,
National Park Service,Glacier Bay National Park and Preserve, ,Gustavus,Alaska,99826,(907) 697-2230,https://www.nps.gov/glba/,"Restrooms, Visitor Center","Spring, Fall",N,Y,
National Park Service,Grand Canyon National Park, ,Grand Canyon,Arizona,86023,(928) 638-7888,https://www.nps.gov/grca/,"Restrooms, Visitor Center, Environmental education facility, Amphitheater","Spring, Fall",Y,Y,
National Park Service,Saguaro National Park,3693 S Old Spanish Trl,Tucson,Arizona,85730,(520) 733-5100,https://www.nps.gov/sagu/,"Restrooms, Visitor Center","Winter, Fall",N,Y,
National Park Service,Golden Gate National Recreation Area,201 Fort Mason,San Francisco,California,94123,(415) 561-4700,https://www.nps.gov/goga/,"Restrooms, Visitor Center, Environmental education facility, Day use areas","Winter, Fall",Y,Y,
National Park Service,Joshua Tree National Park,74485 National Park Dr,Twentynine Palms,California,92277,(760) 367-5500,https://www.nps.gov/jotr/,"Restrooms, Visitor Center, Environmental education facility, Day use areas","Winter, Fall",Y,Y,
National Park Service,Rosie the Riveter/World War II Home Front National Historic Park,1414 Harbour Way S,Richmond,California,94804,(510) 232-5050,https://www.nps.gov/rori/,"Restrooms, Visitor Center","Winter, Spring, Fall",N,Y,
National Park Service,Santa Monica Mountains National Recreation Area,26876 Mulholland Hwy,Calabasas,California,91360,(805) 370-2301,https://www.nps.gov/samo/,"Restrooms, Visitor Center, Environmental education facility","Winter, Spring, Fall",Y,Y,
National Park Service,Yosemite National Park, ,Yosemite National Park,California,95389,(209) 372-0200,https://www.nps.gov/yose/,"Restrooms, Visitor Center, Environmental education facility, Amphitheater, Group shelters, Day use areas","Winter, Spring, Fall",Y,Y,
National Park Service,Black Canyon of the Gunnison National Park,102 Elk Creek Rd,Gunnison,Colorado,81230,(970) 641-2337,https://www.nps.gov/blca/,"Restrooms, Visitor Center, Day use areas","Spring, Fall",Y,Y,
National Park Service,Rocky Mountain National Park,1000 US 36,Estes Park,Colorado,80517,(970) 586-1206,https://www.nps.gov/romo/,"Restrooms, Visitor Center, Environmental education facility, Group shelters, Day use areas","Spring, Fall",Y,Y,
National Park Service,Big Cypress National Preserve,33100 Tamiami Trl E,Ochopee,Florida,34141,(239) 695-2000,https://www.nps.gov/bicy/,"Restrooms, Visitor Center","Winter, Fall",N,Y,
National Park Service,Canaveral National Seashore,212 S Washington Ave,Titusville,Florida,32976,(321) 267-1110,https://www.nps.gov/cana/,"Restrooms, Visitor Center, Turtle Watch programs","Winter, Fall",N,Y,
National Park Service,DeSoto National Memorial,8300 Desoto Memorial Hwy,Bradenton,Florida,34280,(941) 792-0458,https://www.nps.gov/deso/,"Restrooms, Visitor Center","Winter, Fall",N,Y,
National Park Service,"Everglades National Park, Andersonville National Historic Site",496 Cemetery Rd,Andersonville,Georgia,31711,(229) 924-0343,https://www.nps.gov/ande/,"Restrooms, Visitor Center","Winter, Spring, Fall",N,Y,
National Park Service,"Martin Luther King, Jr. National Historic Site",450 Auburn Ave NE,Atlanta,Georgia,30312,(404) 730-3112,https://www.nps.gov/malu/,"Restrooms, Visitor Center","Winter, Spring, Fall",N,Y,
National Park Service,Yellowstone National Park, ,Yellowstone National Park,Wyoming,82190,(307) 344-7381,https://www.nps.gov/yell/,"Restrooms, Visitor Center, Environmental education facility, Group shelters, Day use areas","Spring, Fall",Y,Y,
National Park Service,Indiana Dunes National Lakeshore,1100 N Mineral Springs Rd,Porter,Indiana,46304,(219) 926-7561,https://www.nps.gov/indu/,"Restrooms, Visitor Center, Environmental education facility, Day use areas","Spring, Fall",Y,Y,
National Park Service,Cane River Creole National Historical Park,400 Rapides Dr,Natchitoches,Louisiana,71457,(318) 352-0383,https://www.nps.gov/cari,"Restrooms, Visitor Center","Winter, Spring, Fall",N,Y,
National Park Service,Channel Islands National Park,1901 Spinnaker Dr,Ventura,California,93001,(805) 658-5700,https://www.nps.gov/chis/,"Restrooms, Visitor Center, Amphitheater, Day use areas, Channel Islands LIVE, distance learning program","Winter, Fall",N,Y, 
National Park Service,Rock Creek National Park,3545 Williamsburg Ln NW,Washington,District of Columbia,20008,(202) 895-7060,https://www.nps.gov/rocr/,"Restrooms, Visitor Center, Amphitheater, Day use areas, Planetarium","Winter, Spring, Fall",Y,Y, 
National Park Service,Mount Rainier National Park,55210 238th Ave E,Ashford,Washington,98304,(360) 569-2211,https://www.nps.gov/mora/,"Restrooms, Visitor Center, Environmental education facility, Group shelters, Day use areas","Spring, Fall",Y,Y, 
National Park Service,Great Sand Dunes National Park and Preserve,11999 CO 150,Mosca,Colorado,81146,(719) 378-6300,https://www.nps.gov/grsa/,"Restrooms, Visitor Center, Amphitheater, Day use areas, Night Sky Programs","Spring, Fall",Y,Y, 
National Park Service,San Antonio Missions National Historical Park,6701 San Jose Dr,San Antonio,Texas,78214,(210) 922-0543,https://www.nps.gov/saan/,"Restrooms, Visitor Center, Day use areas, Spanish Colonial History Programs","Winter, Spring, Fall",N,Y, 
National Park Service,Hot Springs National Park,101 Reserve St,Hot Springs,Arkansas,71901,(501) 620-6715,https://www.nps.gov/hosp/,"Restrooms, Visitor Center, Amphitheater, Group shelters, Day use areas, cultural resource center","Spring, Fall",Y,Y, 
National Park Service,Big Bend National Park, ,Big Bend National Park,Texas,79834,(432) 477-2251,https://www.nps.gov/bibe,"Restrooms, Visitor Center, Amphitheater, Group shelters, Day use areas, picnic tables, trails, night sky programs, bilingual content","Winter, Spring",N,Y, 
National Park Service,Cesar Chavez National Monument,29700 Woodford Tehachapi Rd,Keene,California,93531,(661) 823-6134,https://www.nps.gov/cech/,"Restrooms, Contact Station","Spring, Fall",Y,N, 
National Park Service,Big South Fork National River & Recreation Area,4564 Leatherwood Rd,Oneida,Tennessee,37841,(423) 569-9778,https://www.nps.gov/biso/,"Restrooms, Visitor Center, Group shelters, Day use areas, story telling festival","Spring, Fall",Y,Y, 
National Park Service,Obed Wild and Scenic River, ,Wartburg,Tennessee,37887,(423) 346-6294,https://www.nps.gov/obed/,"Restrooms, identify those rocks program - grades 3-5",Fall,N,N, 
National Park Service,Badlands National Park,25216 Ben Reifel Pl,Interior,South Dakota,57750,(605) 433-5361,https://www.nps.gov/badl/,"Restrooms, Visitor Center, Group shelters, Day use areas, youth paleontology programs","Spring, Fall",N,Y, 
National Park Service,Kenilworth Park & Aquatic Gardens,1550 Anacostia Ave NE,Washington,District of Columbia,20019,(202) 692-6080,https://www.nps.gov/keaq/,"Restrooms, Visitor Center, Day use areas","Spring, Fall",Y,Y, 
National Park Service,African Burial Ground National Monument,290 Broadway,New York,New York,10007,(212) 637-2019,https://www.nps.gov/afbg/,"Restrooms, Visitor Center, tours by  2 week advance reservation","Spring, Fall",Y,Y, 
National Park Service,Blue Ridge Parkway, ,Asheville,North Carolina,28803,(828) 348-3400,https://www.nps.gov/blri/,"Restrooms, Visitor Center, Amphitheater, Group shelters, Day use areas","Spring, Fall",Y,Y, 
National Park Service,Marsh-Billings-Rockefeller National Historical Park,54 Elm St,Woodstock,Vermont,05091,(802) 457-3368,https://www.nps.gov/mabi/,"Restrooms, Visitor Center, Group shelters, Day use areas, Forest Center as an Indoor space, if working with park staff","Winter, Spring, Fall",Y,Y, 
National Park Service,Point Reyes National Seashore,1 Bear Valley Rd,Point Reyes Station,California,94956,(415) 464-5100,https://www.nps.gov/pore/,"Restrooms, Visitor Center, Environmental education facility, Group shelters, Day use areas, Historic Lighthouse Tours, Grey Whale Watching","Winter, Spring, Fall",Y,Y, 
National Park Service,Pinnacles National Monument,5000 Highway 146,Paicines,California,95043,(831) 389-4486,https://www.nps.gov/pinn,"Restrooms, Visitor Center, Group shelters, Day use areas, education guide on line for teachers",Spring,Y,Y, 
National Park Service,Cabrillo National Monument,1800 Cabrillo Memorial Dr,San Diego,California,92106,(619) 523-4589,https://www.nps.gov/cabr/,"Restrooms, Visitor Center, Day use areas, tidepool programs, advance reservation","Winter, Spring, Fall",Y,Y, 
National Park Service,Castillo De San Marcos National Monument,1 S Castillo Dr,St Augustine,Florida,32084,(904) 829-6506,https://www.nps.gov/casa/,"Restrooms, Visitor Center, Day use areas","Winter, Spring",N,Y, 
National Park Service,Thomas Edison National Historical Park,211 Main St,West Orange,New Jersey,07052,(973) 736-0550,https://www.nps.gov/edis/,"Restrooms, Visitor Center, Idea to Product, Edison Invention Process","Winter, Spring, Fall",Y,Y, 
National Park Service,Eisenhower National Historic Site,1195 Baltimore Pike,Gettysburg,Pennsylvania,17325,(717) 338-9114,https://www.nps.gov/eise/,"Restrooms, Visitor Center, Environmental education facility, Day use areas, Molding of a Leader Program","Spring, Fall",Y,Y, 
National Park Service,Gettysburg National Military Park,1195 Baltimore Pike,Gettysburg,Pennsylvania,17325,(717) 334-1124,https://www.nps.gov/gett/,"Restrooms, Visitor Center, Group shelters, Day use areas, The Best Field Trip Ever - Field Trip Planner on website","Spring, Fall",Y,Y, 
National Park Service,Homestead National Park,8523 NE-4,Beatrice,Nebraska,68310,(402) 223-3514,https://www.nps.gov/home/,"Restrooms, Visitor Center, Day use areas, Education Center","Spring, Fall",Y,Y, 
National Park Service,San Juan Islands National Historic Monument,4668 Cattle Point Rd,Friday Harbor,Washington,98250,(360) 378-2240,https://www.nps.gov/sajh/,"Restrooms, Visitor Center, Day use areas, Orca whale natural history, ecology of salt marsh","Spring, Fall",Y,Y, 
National Park Service,Lave Beds National Monument,1 Indian Wells HQTRS,Tulelake,California,96134,(530) 378-2240,https://www.nps.gov/labe/,"Restrooms, Visitor Center, Day use areas, Ranger-led education programs","Spring, Fall",Y,Y, 
National Park Service,Lassen Volcanic National Park, ,Mineral,California,96063,(530) 595-4480,https://www.nps.gov/lavo/,"Restrooms, Visitor Center, Group shelters, Day use areas, Discovery Center & Science Lab, open by reservation only","Spring, Fall",Y,Y, 
National Park Service,Devil's Postpile National Monument, ,Mammoth Lakes,California,93546,(760) 924-5505,https://www.nps.gov/depo/,"Restrooms, Visitor Center, picnic areas","Spring, Fall",Y,Y, 
National Park Service,Brown v Board of Education National Historic Site,1515 SE Monroe St,Topeka,Kansas,06612,(785) 354-4273,https://www.nps.gov/brvb/,"Restrooms, Visitor Center, picnic area","Spring, Fall",Y,Y, 
National Park Service,Fort Smith National Historic Site,301 Parker Ave,Fort Smith,Arkansas,72901,(479) 783-3961,https://www.nps.gov/fosm/,"Restrooms, Visitor Center, Day use areas, self guiding trails","Spring, Fall",N,Y, 
National Park Service,Mount Rushmore National Memorial,13000 SD Highway 244,Keystone,South Dakota,57751,(605) 574-3165,https://www.nps.gov/moru/,"Restrooms, Visitor Center, Group shelters, Day use areas, Ranger led activity in historic Sculptor's Studio - by reservation only",Spring,Y,Y, 
National Park Service,Cape Cod National Seashore, ,Wellfleet,Massachusetts,02667,(508) 771-2144,https://www.nps.gov/caco/,"Restrooms, Visitor Center, Amphitheater, Day use areas","Spring, Fall",Y,Y, 
National Park Service,Great Smoky Mountains National Park,107 Park Headquarters Rd,Gatlinburg,Tennessee,37738,(865) 436-1258,https://www.nps.gov/grsm/,"Restrooms, Visitor Center, Environmental education facility, Amphitheater, Group shelters, Day use areas, Explore With Your Senses Program","Spring, Fall",Y,Y, 
National Park Service, National Mall and Memorial Parks,900 Ohio Dr SW,Washington,District of Columbia,20024,(202) 426-6841,https://www.nps.gov/nama/,"Restrooms, Visitor Center, free curriculum based programs - by advance reservations","Spring, Fall",Y,Y, 
National Park Service,Chesapeake and Ohio Canal National Historical Park,11710 MacArthur Blvd,Potomac,Maryland,20854,(301) 582-0813,https://www.nps.gov/choh/,"Restrooms, Visitor Center, Group shelters, Day use areas, Ride the Mercer (mule-drawn boat ride)","Spring, Fall",Y,Y, 
National Park Service,Independence National Historical Park,143 S 3rd St,Philadelphia,Pennsylvania,19106,(215) 965-2305,https://www.nps.gov/inde/,"Restrooms, Visitor Center, Day use areas, Independence Park Institute","Spring, Fall",Y,Y, 
National Park Service,Boston African American National Historic Site,15 State St,Boston,Massachusetts,02109,(617) 742-5415,https://www.nps.gov/boaf/,"Restrooms, Visitor Center, Day use areas","Spring, Summer",Y,Y, 
National Park Service,Valley Forge National Historical Park,1400 N Outer Line Dr,King of Prussia,Pennsylvania,19406,(610) 783-1077,https://www.nps.gov/vafo/,"Restrooms, Visitor Center, Group shelters, Day use areas, Wayne's Woods and Varnum's Picnic Areas best suited for school groups","Spring, Fall",Y,Y, 